{
  "type": "FeatureCollection",
  "features": [
    {
      "type": "Feature",
      "properties": {},
      "geometry": {
        "type": "LineString",
        "coordinates": [
          [
            79.0806741,
            21.145188
          ],
          [
            79.0807036,
            21.1447069
          ],
          [
            79.080733,
            21.1441982
          ],
          [
            79.0807846,
            21.143882
          ],
          [
            79.0809836,
            21.1435246
          ],
          [
            79.0814037,
            21.1431397
          ],
          [
            79.0818754,
            21.1426723
          ],
          [
            79.0821407,
            21.1422736
          ],
          [
            79.0823102,
            21.1418406
          ],
          [
            79.0825018,
            21.1413869
          ],
          [
            79.0818532,
            21.1412769
          ],
          [
            79.0810057,
            21.1412563
          ],
          [
            79.0804162,
            21.1412563
          ],
          [
            79.0802245,
            21.1412769
          ],
          [
            79.0796865,
            21.1412151
          ],
          [
            79.0788769,
            21.1410089
          ],
          [
            79.0788769,
            21.1410089
          ],
          [
            79.0788769,
            21.1410089
          ]
        ]
      }
    },
    {
      "type": "Feature",
      "properties": {},
      "geometry": {
        "type": "LineString",
        "coordinates": [
          [
            79.0777627,
            21.1442085
          ],
          [
            79.0783477,
            21.1440564
          ],
          [
            79.0789506,
            21.1439301
          ],
          [
            79.0792159,
            21.143882
          ],
          [
            79.0796604,
            21.1437446
          ],
          [
            79.0801026,
            21.1436758
          ],
          [
            79.0807069,
            21.1435452
          ],
          [
            79.0809501,
            21.1435452
          ],
          [
            79.0807585,
            21.1427479
          ],
          [
            79.0804047,
            21.1418131
          ],
          [
            79.0802573,
            21.1412632
          ],
          [
            79.0802573,
            21.1412632
          ],
          [
            79.08025,
            21.1412563
          ]
        ]
      }
    },
    {
      "type": "Feature",
      "properties": {},
      "geometry": {
        "type": "LineString",
        "coordinates": [
          [
            79.0782983,
            21.1440833
          ],
          [
            79.078117,
            21.1430419
          ],
          [
            79.077911,
            21.1430804
          ],
          [
            79.077911,
            21.1430804
          ]
        ]
      }
    },
    {
      "type": "Feature",
      "properties": {},
      "geometry": {
        "type": "LineString",
        "coordinates": [
          [
            79.0779934,
            21.1432072
          ],
          [
            79.0781294,
            21.1431841
          ],
          [
            79.0781253,
            21.1431841
          ]
        ]
      }
    },
    {
      "type": "Feature",
      "properties": {},
      "geometry": {
        "type": "LineString",
        "coordinates": [
          [
            79.0781088,
            21.1430573
          ],
          [
            79.07822,
            21.1430611
          ],
          [
            79.0783601,
            21.1431918
          ],
          [
            79.0785043,
            21.1433071
          ],
          [
            79.0786815,
            21.1433225
          ],
          [
            79.0788669,
            21.1432763
          ],
          [
            79.07911,
            21.143138
          ],
          [
            79.0795838,
            21.1431995
          ],
          [
            79.0798681,
            21.143065
          ],
          [
            79.0801689,
            21.1423041
          ],
          [
            79.0802925,
            21.1421504
          ],
          [
            79.0802884,
            21.1421504
          ]
        ]
      }
    },
    {
      "type": "Feature",
      "properties": {},
      "geometry": {
        "type": "LineString",
        "coordinates": [
          [
            79.0795096,
            21.1427768
          ],
          [
            79.0798475,
            21.1424117
          ],
          [
            79.0801771,
            21.1421273
          ],
          [
            79.0804532,
            21.1419198
          ],
          [
            79.0804532,
            21.1419198
          ],
          [
            79.0804532,
            21.1419198
          ]
        ]
      }
    },
    {
      "type": "Feature",
      "properties": {},
      "geometry": {
        "type": "LineString",
        "coordinates": [
          [
            79.0782159,
            21.1430612
          ],
          [
            79.0781253,
            21.1429459
          ],
          [
            79.0780634,
            21.1428075
          ],
          [
            79.0780136,
            21.1424992
          ],
          [
            79.0779436,
            21.1421495
          ]
        ]
      }
    },
    {
      "type": "Feature",
      "properties": {},
      "geometry": {
        "type": "LineString",
        "coordinates": [
          [
            79.0780177,
            21.1426299
          ],
          [
            79.0783556,
            21.1425684
          ],
          [
            79.0783268,
            21.1425146
          ],
          [
            79.0783268,
            21.1425146
          ],
          [
            79.0783638,
            21.1424685
          ]
        ]
      }
    },
    {
      "type": "Feature",
      "properties": {},
      "geometry": {
        "type": "LineString",
        "coordinates": [
          [
            79.0781949,
            21.1430641
          ],
          [
            79.0782567,
            21.1429603
          ],
          [
            79.0782567,
            21.1429603
          ]
        ]
      }
    },
    {
      "type": "Feature",
      "properties": {},
      "geometry": {
        "type": "LineString",
        "coordinates": [
          [
            79.078199,
            21.1430679
          ],
          [
            79.0782649,
            21.1432486
          ],
          [
            79.0782073,
            21.1432601
          ],
          [
            79.078302,
            21.1432409
          ]
        ]
      }
    },
    {
      "type": "Feature",
      "properties": {},
      "geometry": {
        "type": "LineString",
        "coordinates": [
          [
            79.0786399,
            21.1438903
          ],
          [
            79.0786193,
            21.1437712
          ],
          [
            79.0786883,
            21.1437289
          ]
        ]
      }
    },
    {
      "type": "Feature",
      "properties": {},
      "geometry": {
        "type": "LineString",
        "coordinates": [
          [
            79.0792692,
            21.1437597
          ],
          [
            79.0791003,
            21.1431832
          ],
          [
            79.0790509,
            21.143141
          ],
          [
            79.0790715,
            21.1431025
          ],
          [
            79.0790632,
            21.1429142
          ],
          [
            79.0793681,
            21.1428412
          ],
          [
            79.0795041,
            21.142772
          ]
        ]
      }
    },
    {
      "type": "Feature",
      "properties": {},
      "geometry": {
        "type": "LineString",
        "coordinates": [
          [
            79.0790509,
            21.1429181
          ],
          [
            79.0788613,
            21.1427567
          ],
          [
            79.0787954,
            21.1427989
          ],
          [
            79.0787995,
            21.1427951
          ]
        ]
      }
    },
    {
      "type": "Feature",
      "properties": {},
      "geometry": {
        "type": "LineString",
        "coordinates": [
          [
            79.0788407,
            21.1427759
          ],
          [
            79.0787872,
            21.1427067
          ]
        ]
      }
    },
    {
      "type": "Feature",
      "properties": {},
      "geometry": {
        "type": "LineString",
        "coordinates": [
          [
            79.0788531,
            21.1427682
          ],
          [
            79.0790138,
            21.142626
          ],
          [
            79.0789561,
            21.1425645
          ],
          [
            79.0789726,
            21.1424646
          ]
        ]
      }
    },
    {
      "type": "Feature",
      "properties": {},
      "geometry": {
        "type": "LineString",
        "coordinates": [
          [
            79.0793805,
            21.1430564
          ],
          [
            79.0794011,
            21.1430295
          ],
          [
            79.0793104,
            21.1428643
          ]
        ]
      }
    },
    {
      "type": "Feature",
      "properties": {},
      "geometry": {
        "type": "LineString",
        "coordinates": [
          [
            79.0796153,
            21.1429834
          ],
          [
            79.0795164,
            21.1427682
          ]
        ]
      }
    },
    {
      "type": "Feature",
      "properties": {},
      "geometry": {
        "type": "LineString",
        "coordinates": [
          [
            79.0798296,
            21.1430872
          ],
          [
            79.0797884,
            21.1430334
          ]
        ]
      }
    },
    {
      "type": "Feature",
      "properties": {},
      "geometry": {
        "type": "LineString",
        "coordinates": [
          [
            79.0798049,
            21.1428489
          ],
          [
            79.07964,
            21.142626
          ]
        ]
      }
    },
    {
      "type": "Feature",
      "properties": {},
      "geometry": {
        "type": "LineString",
        "coordinates": [
          [
            79.0799161,
            21.1429296
          ],
          [
            79.0799243,
            21.1426913
          ],
          [
            79.0797595,
            21.1425338
          ],
          [
            79.0795412,
            21.1423609
          ],
          [
            79.0796112,
            21.1422648
          ],
          [
            79.0794299,
            21.1421303
          ],
          [
            79.0795741,
            21.1419305
          ],
          [
            79.079537,
            21.1418382
          ]
        ]
      }
    },
    {
      "type": "Feature",
      "properties": {},
      "geometry": {
        "type": "LineString",
        "coordinates": [
          [
            79.0794176,
            21.1421418
          ],
          [
            79.079364,
            21.1422033
          ],
          [
            79.0792733,
            21.1421956
          ]
        ]
      }
    },
    {
      "type": "Feature",
      "properties": {},
      "geometry": {
        "type": "LineString",
        "coordinates": [
          [
            79.0794794,
            21.1420611
          ],
          [
            79.0797307,
            21.1422225
          ],
          [
            79.0797183,
            21.1423071
          ],
          [
            79.0797801,
            21.142357
          ],
          [
            79.0798461,
            21.142357
          ],
          [
            79.0798996,
            21.1424262
          ],
          [
            79.0801097,
            21.1422763
          ],
          [
            79.0802787,
            21.142161
          ]
        ]
      }
    },
    {
      "type": "Feature",
      "properties": {},
      "geometry": {
        "type": "LineString",
        "coordinates": [
          [
            79.0800727,
            21.1422148
          ],
          [
            79.0799985,
            21.1421188
          ],
          [
            79.0799985,
            21.1420995
          ]
        ]
      }
    },
    {
      "type": "Feature",
      "properties": {},
      "geometry": {
        "type": "LineString",
        "coordinates": [
          [
            79.0797307,
            21.1430141
          ],
          [
            79.0797266,
            21.1429258
          ],
          [
            79.0795988,
            21.1426875
          ]
        ]
      }
    },
    {
      "type": "Feature",
      "properties": {},
      "geometry": {
        "type": "LineString",
        "coordinates": [
          [
            79.0793599,
            21.1427144
          ],
          [
            79.0794423,
            21.1426644
          ],
          [
            79.079607,
            21.1426606
          ]
        ]
      }
    },
    {
      "type": "Feature",
      "properties": {},
      "geometry": {
        "type": "LineString",
        "coordinates": [
          [
            79.0799626,
            21.1415099
          ],
          [
            79.0798193,
            21.1414208
          ],
          [
            79.0797119,
            21.1413762
          ],
          [
            79.0795527,
            21.1413169
          ],
          [
            79.0793895,
            21.14125
          ],
          [
            79.0791627,
            21.1411758
          ],
          [
            79.0790354,
            21.1411758
          ],
          [
            79.0790354,
            21.1411721
          ]
        ]
      }
    },
    {
      "type": "Feature",
      "properties": {},
      "geometry": {
        "type": "LineString",
        "coordinates": [
          [
            79.0796283,
            21.1413651
          ],
          [
            79.0796721,
            21.1412166
          ]
        ]
      }
    },
    {
      "type": "Feature",
      "properties": {},
      "geometry": {
        "type": "LineString",
        "coordinates": [
          [
            79.0795766,
            21.1414059
          ],
          [
            79.0796124,
            21.1414059
          ],
          [
            79.0796362,
            21.141354
          ]
        ]
      }
    },
    {
      "type": "Feature",
      "properties": {},
      "geometry": {
        "type": "LineString",
        "coordinates": [
          [
            79.079095,
            21.1413057
          ],
          [
            79.0790712,
            21.1412723
          ],
          [
            79.0791707,
            21.1411795
          ]
        ]
      }
    },
    {
      "type": "Feature",
      "properties": {},
      "geometry": {
        "type": "LineString",
        "coordinates": [
          [
            79.0798273,
            21.1415433
          ],
          [
            79.0798193,
            21.1415136
          ],
          [
            79.0798273,
            21.1414245
          ]
        ]
      }
    },
    {
      "type": "Feature",
      "properties": {},
      "geometry": {
        "type": "LineString",
        "coordinates": [
          [
            79.0803645,
            21.1430732
          ],
          [
            79.0808062,
            21.142973
          ],
          [
            79.0808141,
            21.1429693
          ]
        ]
      }
    },
    {
      "type": "Feature",
      "properties": {},
      "geometry": {
        "type": "LineString",
        "coordinates": [
          [
            79.0804202,
            21.1430732
          ],
          [
            79.0804202,
            21.1430732
          ],
          [
            79.0804122,
            21.1430064
          ]
        ]
      }
    },
    {
      "type": "Feature",
      "properties": {},
      "geometry": {
        "type": "LineString",
        "coordinates": [
          [
            79.0791492,
            21.1442086
          ],
          [
            79.0791497,
            21.1442091
          ],
          [
            79.0791284,
            21.1441565
          ],
          [
            79.0791404,
            21.1441862
          ],
          [
            79.0792916,
            21.1441268
          ],
          [
            79.0792598,
            21.1438707
          ]
        ]
      }
    },
    {
      "type": "Feature",
      "properties": {},
      "geometry": {
        "type": "LineString",
        "coordinates": [
          [
            79.0791598,
            21.1441253
          ],
          [
            79.0791598,
            21.1441253
          ],
          [
            79.0792858,
            21.1440807
          ]
        ]
      }
    },
    {
      "type": "Feature",
      "properties": {},
      "geometry": {
        "type": "LineString",
        "coordinates": [
          [
            79.0798489,
            21.144148
          ],
          [
            79.079818,
            21.1440496
          ],
          [
            79.0801218,
            21.1439597
          ],
          [
            79.0800782,
            21.1436797
          ]
        ]
      }
    },
    {
      "type": "Feature",
      "properties": {},
      "geometry": {
        "type": "LineString",
        "coordinates": [
          [
            79.0802019,
            21.1443058
          ],
          [
            79.0803874,
            21.1442346
          ],
          [
            79.0802583,
            21.1438545
          ],
          [
            79.0802182,
            21.1436509
          ]
        ]
      }
    },
    {
      "type": "Feature",
      "properties": {},
      "geometry": {
        "type": "LineString",
        "coordinates": [
          [
            79.0803765,
            21.144238
          ],
          [
            79.0805512,
            21.1441989
          ],
          [
            79.0805912,
            21.1442634
          ],
          [
            79.0807349,
            21.1442634
          ],
          [
            79.0807349,
            21.1442634
          ],
          [
            79.0807331,
            21.1442634
          ]
        ]
      }
    },
    {
      "type": "Feature",
      "properties": {},
      "geometry": {
        "type": "LineString",
        "coordinates": [
          [
            79.0805548,
            21.143952
          ],
          [
            79.0805748,
            21.1439775
          ],
          [
            79.0807695,
            21.1439402
          ]
        ]
      }
    },
    {
      "type": "Feature",
      "properties": {},
      "geometry": {
        "type": "LineString",
        "coordinates": [
          [
            79.0816234,
            21.1429138
          ],
          [
            79.0813965,
            21.1426663
          ],
          [
            79.0811773,
            21.1422754
          ],
          [
            79.0809851,
            21.1420889
          ],
          [
            79.0808005,
            21.1418917
          ],
          [
            79.080839,
            21.1415258
          ],
          [
            79.0809928,
            21.1414469
          ]
        ]
      }
    },
    {
      "type": "Feature",
      "properties": {},
      "geometry": {
        "type": "LineString",
        "coordinates": [
          [
            79.0807159,
            21.141967
          ],
          [
            79.0808005,
            21.1418952
          ],
          [
            79.0807582,
            21.1418701
          ]
        ]
      }
    },
    {
      "type": "Feature",
      "properties": {},
      "geometry": {
        "type": "LineString",
        "coordinates": [
          [
            79.0810351,
            21.1416836
          ],
          [
            79.0807582,
            21.1416836
          ]
        ]
      }
    },
    {
      "type": "Feature",
      "properties": {},
      "geometry": {
        "type": "LineString",
        "coordinates": [
          [
            79.0808313,
            21.1415294
          ],
          [
            79.0807505,
            21.1415043
          ]
        ]
      }
    },
    {
      "type": "Feature",
      "properties": {},
      "geometry": {
        "type": "LineString",
        "coordinates": [
          [
            79.0815696,
            21.1428815
          ],
          [
            79.0817695,
            21.1426807
          ],
          [
            79.0818695,
            21.1426556
          ],
          [
            79.0818695,
            21.1426556
          ],
          [
            79.0818772,
            21.1426484
          ]
        ]
      }
    },
    {
      "type": "Feature",
      "properties": {},
      "geometry": {
        "type": "LineString",
        "coordinates": [
          [
            79.0817464,
            21.1426843
          ],
          [
            79.0817772,
            21.142634
          ],
          [
            79.0816734,
            21.142548
          ],
          [
            79.0815772,
            21.1424942
          ],
          [
            79.0816388,
            21.1421033
          ],
          [
            79.0815542,
            21.1421068
          ],
          [
            79.0815734,
            21.1418092
          ],
          [
            79.0817041,
            21.1418235
          ]
        ]
      }
    },
    {
      "type": "Feature",
      "properties": {},
      "geometry": {
        "type": "LineString",
        "coordinates": [
          [
            79.0815619,
            21.1418199
          ],
          [
            79.0816426,
            21.1415832
          ],
          [
            79.0816042,
            21.1415294
          ]
        ]
      }
    },
    {
      "type": "Feature",
      "properties": {},
      "geometry": {
        "type": "LineString",
        "coordinates": [
          [
            79.0810851,
            21.1422001
          ],
          [
            79.0811658,
            21.1421033
          ],
          [
            79.0810812,
            21.1420495
          ]
        ]
      }
    },
    {
      "type": "Feature",
      "properties": {},
      "geometry": {
        "type": "LineString",
        "coordinates": [
          [
            79.0813158,
            21.141949
          ],
          [
            79.0813581,
            21.141802
          ],
          [
            79.081235,
            21.1417554
          ],
          [
            79.0811581,
            21.1417661
          ],
          [
            79.0810851,
            21.1416083
          ],
          [
            79.0810851,
            21.1416083
          ],
          [
            79.0810774,
            21.1412569
          ]
        ]
      }
    },
    {
      "type": "Feature",
      "properties": {},
      "geometry": {
        "type": "LineString",
        "coordinates": [
          [
            79.0815503,
            21.1418307
          ],
          [
            79.0814773,
            21.1418952
          ],
          [
            79.081458,
            21.1418665
          ]
        ]
      }
    },
    {
      "type": "Feature",
      "properties": {},
      "geometry": {
        "type": "LineString",
        "coordinates": [
          [
            79.0813235,
            21.1425802
          ],
          [
            79.0814388,
            21.1424942
          ],
          [
            79.0815157,
            21.1424798
          ]
        ]
      }
    },
    {
      "type": "Feature",
      "properties": {},
      "geometry": {
        "type": "LineString",
        "coordinates": [
          [
            79.0816926,
            21.1418235
          ],
          [
            79.0818964,
            21.1418486
          ],
          [
            79.0819848,
            21.1417625
          ]
        ]
      }
    },
    {
      "type": "Feature",
      "properties": {},
      "geometry": {
        "type": "LineString",
        "coordinates": [
          [
            79.0817234,
            21.1426054
          ],
          [
            79.081808,
            21.1425157
          ],
          [
            79.0819002,
            21.1425049
          ]
        ]
      }
    },
    {
      "type": "Feature",
      "properties": {},
      "geometry": {
        "type": "LineString",
        "coordinates": [
          [
            79.0816157,
            21.1421642
          ],
          [
            79.0818272,
            21.1421463
          ],
          [
            79.0819727,
            21.1421675
          ]
        ]
      }
    },
    {
      "type": "Feature",
      "properties": {},
      "geometry": {
        "type": "LineString",
        "coordinates": [
          [
            79.0816766,
            21.1413642
          ],
          [
            79.0818612,
            21.141357
          ],
          [
            79.082065,
            21.1413211
          ]
        ]
      }
    },
    {
      "type": "Feature",
      "properties": {},
      "geometry": {
        "type": "LineString",
        "coordinates": [
          [
            79.0814767,
            21.1413677
          ],
          [
            79.0812767,
            21.1413319
          ],
          [
            79.0811998,
            21.1412709
          ]
        ]
      }
    },
    {
      "type": "Feature",
      "properties": {},
      "geometry": {
        "type": "LineString",
        "coordinates": [
          [
            79.080946,
            21.1429027
          ],
          [
            79.0808806,
            21.1428776
          ],
          [
            79.0810037,
            21.1427521
          ],
          [
            79.081146,
            21.1427736
          ],
          [
            79.0811037,
            21.1425836
          ],
          [
            79.0810114,
            21.1425513
          ],
          [
            79.0810114,
            21.1425513
          ],
          [
            79.0809422,
            21.1423433
          ]
        ]
      }
    },
    {
      "type": "Feature",
      "properties": {},
      "geometry": {
        "type": "LineString",
        "coordinates": [
          [
            79.0808614,
            21.1428884
          ],
          [
            79.0808691,
            21.1428812
          ],
          [
            79.0807922,
            21.1428597
          ],
          [
            79.0807999,
            21.1428597
          ]
        ]
      }
    },
    {
      "type": "Feature",
      "properties": {},
      "geometry": {
        "type": "LineString",
        "coordinates": [
          [
            79.0806363,
            21.1424543
          ],
          [
            79.0807708,
            21.1423907
          ],
          [
            79.0807788,
            21.1423364
          ]
        ]
      }
    },
    {
      "type": "Feature",
      "properties": {},
      "geometry": {
        "type": "LineString",
        "coordinates": [
          [
            79.0811991,
            21.1423249
          ],
          [
            79.0812391,
            21.1422774
          ],
          [
            79.0812682,
            21.1421824
          ],
          [
            79.0812682,
            21.1421824
          ],
          [
            79.0814174,
            21.1421145
          ],
          [
            79.0813882,
            21.1420399
          ]
        ]
      }
    },
    {
      "type": "Feature",
      "properties": {},
      "geometry": {
        "type": "LineString",
        "coordinates": [
          [
            79.0812755,
            21.1432479
          ],
          [
            79.0810826,
            21.1431732
          ],
          [
            79.0809626,
            21.1430714
          ]
        ]
      }
    },
    {
      "type": "Feature",
      "properties": {},
      "geometry": {
        "type": "LineString",
        "coordinates": [
          [
            79.0803178,
            21.1436433
          ],
          [
            79.080191,
            21.1434785
          ],
          [
            79.0802909,
            21.1434212
          ]
        ]
      }
    },
    {
      "type": "Feature",
      "properties": {},
      "geometry": {
        "type": "LineString",
        "coordinates": [
          [
            79.0809325,
            21.1435563
          ],
          [
            79.0809325,
            21.1435563
          ],
          [
            79.0813083,
            21.1436197
          ],
          [
            79.0820026,
            21.14383
          ],
          [
            79.0823605,
            21.1439068
          ],
          [
            79.0825859,
            21.1439568
          ],
          [
            79.0825859,
            21.1439568
          ],
          [
            79.0826289,
            21.1437132
          ],
          [
            79.0826539,
            21.1434795
          ],
          [
            79.0826468,
            21.1434829
          ],
          [
            79.0826432,
            21.1434795
          ],
          [
            79.0825788,
            21.1434528
          ]
        ]
      }
    },
    {
      "type": "Feature",
      "properties": {},
      "geometry": {
        "type": "LineString",
        "coordinates": [
          [
            79.0809407,
            21.1435556
          ],
          [
            79.0810916,
            21.1442595
          ],
          [
            79.0811737,
            21.1447431
          ],
          [
            79.0811737,
            21.1447431
          ],
          [
            79.0811966,
            21.1450001
          ]
        ]
      }
    },
    {
      "type": "Feature",
      "properties": {},
      "geometry": {
        "type": "LineString",
        "coordinates": [
          [
            79.0812787,
            21.1436321
          ],
          [
            79.0813377,
            21.1438524
          ],
          [
            79.0815937,
            21.1438892
          ],
          [
            79.081784,
            21.1439198
          ],
          [
            79.0818628,
            21.1437821
          ]
        ]
      }
    },
    {
      "type": "Feature",
      "properties": {},
      "geometry": {
        "type": "LineString",
        "coordinates": [
          [
            79.0819711,
            21.143828
          ],
          [
            79.0818923,
            21.1440789
          ],
          [
            79.0817184,
            21.1440912
          ],
          [
            79.0816725,
            21.1443727
          ],
          [
            79.0821483,
            21.144437
          ],
          [
            79.0823944,
            21.1444799
          ],
          [
            79.0824699,
            21.1438677
          ]
        ]
      }
    },
    {
      "type": "Feature",
      "properties": {},
      "geometry": {
        "type": "LineString",
        "coordinates": [
          [
            79.0820662,
            21.1444309
          ],
          [
            79.0820958,
            21.1442779
          ],
          [
            79.0820498,
            21.1442136
          ]
        ]
      }
    },
    {
      "type": "Feature",
      "properties": {},
      "geometry": {
        "type": "LineString",
        "coordinates": [
          [
            79.0814263,
            21.1444493
          ],
          [
            79.0813738,
            21.1442228
          ],
          [
            79.0810785,
            21.1441371
          ]
        ]
      }
    },
    {
      "type": "Feature",
      "properties": {},
      "geometry": {
        "type": "LineString",
        "coordinates": [
          [
            79.0810194,
            21.1439564
          ],
          [
            79.0810818,
            21.1438982
          ],
          [
            79.0811671,
            21.1439472
          ]
        ]
      }
    },
    {
      "type": "Feature",
      "properties": {},
      "geometry": {
        "type": "LineString",
        "coordinates": [
          [
            79.0796334,
            21.1435819
          ],
          [
            79.0797991,
            21.1434108
          ],
          [
            79.080101,
            21.1436592
          ],
          [
            79.080101,
            21.1436592
          ],
          [
            79.080095,
            21.1436592
          ]
        ]
      }
    },
    {
      "type": "Feature",
      "properties": {},
      "geometry": {
        "type": "LineString",
        "coordinates": [
          [
            79.0798405,
            21.1430906
          ],
          [
            79.0799293,
            21.1433059
          ],
          [
            79.0798938,
            21.1433501
          ]
        ]
      }
    },
    {
      "type": "Feature",
      "properties": {},
      "geometry": {
        "type": "LineString",
        "coordinates": [
          [
            79.0814505,
            21.1430851
          ],
          [
            79.0821016,
            21.1432507
          ],
          [
            79.0821726,
            21.1430023
          ],
          [
            79.0823561,
            21.1429692
          ],
          [
            79.0823561,
            21.1428091
          ],
          [
            79.0824093,
            21.1427539
          ]
        ]
      }
    },
    {
      "type": "Feature",
      "properties": {},
      "geometry": {
        "type": "LineString",
        "coordinates": [
          [
            79.0818411,
            21.1438083
          ],
          [
            79.0820956,
            21.1432562
          ]
        ]
      }
    },
    {
      "type": "Feature",
      "properties": {},
      "geometry": {
        "type": "LineString",
        "coordinates": [
          [
            79.0826283,
            21.1435654
          ],
          [
            79.0820187,
            21.1434053
          ],
          [
            79.0818589,
            21.1432728
          ],
          [
            79.0818056,
            21.1431624
          ]
        ]
      }
    },
    {
      "type": "Feature",
      "properties": {},
      "geometry": {
        "type": "LineString",
        "coordinates": [
          [
            79.0819595,
            21.143869
          ],
          [
            79.0820305,
            21.1436758
          ],
          [
            79.0819654,
            21.1435874
          ]
        ]
      }
    },
    {
      "type": "Feature",
      "properties": {},
      "geometry": {
        "type": "LineString",
        "coordinates": [
          [
            79.0824591,
            21.141449
          ],
          [
            79.0832418,
            21.1416358
          ]
        ]
      }
    },
    {
      "type": "Feature",
      "properties": {},
      "geometry": {
        "type": "LineString",
        "coordinates": [
          [
            79.0824045,
            21.1415
          ],
          [
            79.082714,
            21.1410585
          ]
        ]
      }
    },
    {
      "type": "Feature",
      "properties": {},
      "geometry": {
        "type": "LineString",
        "coordinates": [
          [
            79.0806765,
            21.1416459
          ],
          [
            79.080628,
            21.1415299
          ],
          [
            79.080746,
            21.1415044
          ],
          [
            79.0802951,
            21.1413826
          ]
        ]
      }
    },
    {
      "type": "Feature",
      "properties": {},
      "geometry": {
        "type": "LineString",
        "coordinates": [
          [
            79.0800999,
            21.1429238
          ],
          [
            79.0800469,
            21.1429067
          ],
          [
            79.08014,
            21.1428317
          ],
          [
            79.0803629,
            21.142796
          ],
          [
            79.0806059,
            21.1427636
          ],
          [
            79.0807082,
            21.1426187
          ]
        ]
      }
    },
    {
      "type": "Feature",
      "properties": {},
      "geometry": {
        "type": "LineString",
        "coordinates": [
          [
            79.080436,
            21.1422865
          ],
          [
            79.0804799,
            21.1422609
          ],
          [
            79.0805694,
            21.1422575
          ]
        ]
      }
    }
  ]
}