{
  "type": "FeatureCollection",
  "features": [
    {
      "type": "Feature",
      "properties": {},
      "geometry": {
        "type": "LineString",
        "coordinates": [
          [
            79.0807687,
            21.1434882
          ],
          [
            79.0806438,
            21.1434789
          ],
          [
            79.0803639,
            21.1435115
          ],
          [
            79.0802334,
            21.1435704
          ],
          [
            79.0800641,
            21.1435814
          ],
          [
            79.0799429,
            21.1436182
          ],
          [
            79.0798233,
            21.1436319
          ],
          [
            79.0796873,
            21.1436655
          ],
          [
            79.079567,
            21.1437025
          ],
          [
            79.0794275,
            21.1437168
          ],
          [
            79.0794246,
            21.1437212
          ],
          [
            79.0792472,
            21.1437753
          ],
          [
            79.0790998,
            21.1437958
          ],
          [
            79.0789699,
            21.1438424
          ],
          [
            79.0788949,
            21.1438377
          ],
          [
            79.0787584,
            21.1438705
          ],
          [
            79.0786926,
            21.1439076
          ],
          [
            79.0786153,
            21.1439007
          ],
          [
            79.0784486,
            21.1439451
          ],
          [
            79.0784486,
            21.1439451
          ],
          [
            79.0783755,
            21.1439822
          ],
          [
            79.0781806,
            21.144001
          ],
          [
            79.0781706,
            21.1440103
          ]
        ]
      }
    },
    {
      "type": "Feature",
      "properties": {},
      "geometry": {
        "type": "LineString",
        "coordinates": [
          [
            79.0808913,
            21.1435178
          ],
          [
            79.0808913,
            21.1435178
          ],
          [
            79.0807718,
            21.1434877
          ],
          [
            79.0807189,
            21.1432787
          ],
          [
            79.0806589,
            21.143069
          ],
          [
            79.0806039,
            21.1427521
          ],
          [
            79.080494,
            21.142342
          ],
          [
            79.0803991,
            21.1419505
          ],
          [
            79.0803291,
            21.1415405
          ],
          [
            79.0802742,
            21.1413727
          ],
          [
            79.0802742,
            21.1413727
          ],
          [
            79.0802742,
            21.1413727
          ]
        ]
      }
    },
    {
      "type": "Feature",
      "properties": {},
      "geometry": {
        "type": "LineString",
        "coordinates": [
          [
            79.0782805,
            21.1439825
          ],
          [
            79.0782056,
            21.1434605
          ],
          [
            79.0780706,
            21.1428127
          ],
          [
            79.0779607,
            21.142109
          ],
          [
            79.0778308,
            21.141438
          ],
          [
            79.0778408,
            21.1414613
          ]
        ]
      }
    },
    {
      "type": "Feature",
      "properties": {},
      "geometry": {
        "type": "LineString",
        "coordinates": [
          [
            79.0807837,
            21.1435907
          ],
          [
            79.0805838,
            21.1436373
          ],
          [
            79.080229,
            21.1437026
          ],
          [
            79.0797943,
            21.1437725
          ],
          [
            79.0793496,
            21.143875
          ],
          [
            79.0791997,
            21.143903
          ],
          [
            79.0791997,
            21.143903
          ],
          [
            79.0788949,
            21.1439356
          ],
          [
            79.0785851,
            21.1440195
          ],
          [
            79.0783553,
            21.1440428
          ],
          [
            79.0783203,
            21.1441034
          ],
          [
            79.0783203,
            21.144108
          ],
          [
            79.0783203,
            21.144108
          ]
        ]
      }
    },
    {
      "type": "Feature",
      "properties": {},
      "geometry": {
        "type": "LineString",
        "coordinates": [
          [
            79.0803018,
            21.1435344
          ],
          [
            79.0802554,
            21.1434911
          ],
          [
            79.0803057,
            21.143408
          ],
          [
            79.0803018,
            21.1434116
          ]
        ]
      }
    },
    {
      "type": "Feature",
      "properties": {},
      "geometry": {
        "type": "LineString",
        "coordinates": [
          [
            79.0804024,
            21.1435162
          ],
          [
            79.0804604,
            21.1434044
          ],
          [
            79.0804604,
            21.1433683
          ],
          [
            79.0804411,
            21.1433251
          ]
        ]
      }
    },
    {
      "type": "Feature",
      "properties": {},
      "geometry": {
        "type": "LineString",
        "coordinates": [
          [
            79.0799655,
            21.1436207
          ],
          [
            79.0799269,
            21.1433683
          ],
          [
            79.0799114,
            21.14317
          ],
          [
            79.0798534,
            21.1431015
          ]
        ]
      }
    },
    {
      "type": "Feature",
      "properties": {},
      "geometry": {
        "type": "LineString",
        "coordinates": [
          [
            79.0799037,
            21.1433106
          ],
          [
            79.0798843,
            21.1433467
          ],
          [
            79.0798457,
            21.1433251
          ]
        ]
      }
    },
    {
      "type": "Feature",
      "properties": {},
      "geometry": {
        "type": "LineString",
        "coordinates": [
          [
            79.0799153,
            21.1433142
          ],
          [
            79.0798998,
            21.1433214
          ],
          [
            79.0798921,
            21.1433214
          ]
        ]
      }
    },
    {
      "type": "Feature",
      "properties": {},
      "geometry": {
        "type": "LineString",
        "coordinates": [
          [
            79.0796253,
            21.1436928
          ],
          [
            79.0796176,
            21.1436135
          ],
          [
            79.0796137,
            21.1435919
          ],
          [
            79.079606,
            21.1435775
          ],
          [
            79.0795867,
            21.1435522
          ],
          [
            79.0795867,
            21.1435522
          ]
        ]
      }
    },
    {
      "type": "Feature",
      "properties": {},
      "geometry": {
        "type": "LineString",
        "coordinates": [
          [
            79.0793601,
            21.1437514
          ],
          [
            79.0793214,
            21.1437045
          ],
          [
            79.0793175,
            21.1436829
          ],
          [
            79.0793175,
            21.1436576
          ],
          [
            79.0793407,
            21.1436396
          ],
          [
            79.079333,
            21.1436144
          ],
          [
            79.079333,
            21.1436144
          ]
        ]
      }
    },
    {
      "type": "Feature",
      "properties": {},
      "geometry": {
        "type": "LineString",
        "coordinates": [
          [
            79.0785752,
            21.1439119
          ],
          [
            79.0785559,
            21.143883
          ],
          [
            79.0785559,
            21.1438686
          ],
          [
            79.0785636,
            21.1438614
          ],
          [
            79.0785636,
            21.1438542
          ]
        ]
      }
    },
    {
      "type": "Feature",
      "properties": {},
      "geometry": {
        "type": "LineString",
        "coordinates": [
          [
            79.0798356,
            21.1431078
          ],
          [
            79.0797853,
            21.143133
          ],
          [
            79.0797583,
            21.1431222
          ],
          [
            79.0797467,
            21.1430969
          ],
          [
            79.0796771,
            21.1430897
          ]
        ]
      }
    },
    {
      "type": "Feature",
      "properties": {},
      "geometry": {
        "type": "LineString",
        "coordinates": [
          [
            79.0798472,
            21.1431005
          ],
          [
            79.0797776,
            21.1430248
          ],
          [
            79.0797776,
            21.1430248
          ]
        ]
      }
    },
    {
      "type": "Feature",
      "properties": {},
      "geometry": {
        "type": "LineString",
        "coordinates": [
          [
            79.0796693,
            21.1430969
          ],
          [
            79.079623,
            21.1430609
          ],
          [
            79.079623,
            21.1430609
          ]
        ]
      }
    },
    {
      "type": "Feature",
      "properties": {},
      "geometry": {
        "type": "LineString",
        "coordinates": [
          [
            79.0796577,
            21.1431041
          ]
        ]
      }
    },
    {
      "type": "Feature",
      "properties": {},
      "geometry": {
        "type": "LineString",
        "coordinates": [
          [
            79.0796616,
            21.1431041
          ]
        ]
      }
    },
    {
      "type": "Feature",
      "properties": {},
      "geometry": {
        "type": "LineString",
        "coordinates": [
          [
            79.0796577,
            21.1431114
          ],
          [
            79.0795572,
            21.1431078
          ],
          [
            79.0795418,
            21.1430392
          ],
          [
            79.0795495,
            21.1430392
          ]
        ]
      }
    },
    {
      "type": "Feature",
      "properties": {},
      "geometry": {
        "type": "LineString",
        "coordinates": [
          [
            79.07965,
            21.1431222
          ],
          [
            79.0796655,
            21.1430933
          ],
          [
            79.0796655,
            21.1430933
          ],
          [
            79.0796655,
            21.1430933
          ]
        ]
      }
    },
    {
      "type": "Feature",
      "properties": {},
      "geometry": {
        "type": "LineString",
        "coordinates": [
          [
            79.0796693,
            21.1431005
          ],
          [
            79.07965,
            21.1430969
          ],
          [
            79.0796539,
            21.1430969
          ],
          [
            79.0797853,
            21.1429419
          ],
          [
            79.0797892,
            21.1429419
          ]
        ]
      }
    },
    {
      "type": "Feature",
      "properties": {},
      "geometry": {
        "type": "LineString",
        "coordinates": [
          [
            79.0797312,
            21.142996
          ],
          [
            79.0796577,
            21.1428698
          ],
          [
            79.0796114,
            21.1428049
          ],
          [
            79.0794644,
            21.1427832
          ],
          [
            79.0794644,
            21.1427832
          ]
        ]
      }
    },
    {
      "type": "Feature",
      "properties": {},
      "geometry": {
        "type": "LineString",
        "coordinates": [
          [
            79.0794449,
            21.1427933
          ],
          [
            79.0793444,
            21.1428906
          ],
          [
            79.0791627,
            21.1429519
          ]
        ]
      }
    },
    {
      "type": "Feature",
      "properties": {},
      "geometry": {
        "type": "LineString",
        "coordinates": [
          [
            79.0794449,
            21.1427933
          ],
          [
            79.0794372,
            21.142732
          ],
          [
            79.079356,
            21.1427175
          ]
        ]
      }
    },
    {
      "type": "Feature",
      "properties": {},
      "geometry": {
        "type": "LineString",
        "coordinates": [
          [
            79.0794759,
            21.1427859
          ],
          [
            79.0792014,
            21.1428149
          ],
          [
            79.0791086,
            21.1427897
          ]
        ]
      }
    },
    {
      "type": "Feature",
      "properties": {},
      "geometry": {
        "type": "LineString",
        "coordinates": [
          [
            79.0805859,
            21.1426894
          ],
          [
            79.0802491,
            21.1427066
          ],
          [
            79.0801447,
            21.1427823
          ],
          [
            79.0800442,
            21.1428616
          ],
          [
            79.0800712,
            21.1429085
          ],
          [
            79.080106,
            21.1429265
          ],
          [
            79.0801292,
            21.1429265
          ]
        ]
      }
    },
    {
      "type": "Feature",
      "properties": {},
      "geometry": {
        "type": "LineString",
        "coordinates": [
          [
            79.080345,
            21.1418533
          ],
          [
            79.0803827,
            21.1418304
          ],
          [
            79.080079,
            21.1419458
          ],
          [
            79.079849,
            21.1419523
          ],
          [
            79.0797059,
            21.1421867
          ],
          [
            79.0796258,
            21.1422565
          ],
          [
            79.079593,
            21.1422504
          ],
          [
            79.0795733,
            21.1422351
          ],
          [
            79.0795602,
            21.142226
          ]
        ]
      }
    },
    {
      "type": "Feature",
      "properties": {},
      "geometry": {
        "type": "LineString",
        "coordinates": [
          [
            79.0796204,
            21.1422635
          ],
          [
            79.0796189,
            21.1423029
          ],
          [
            79.0796234,
            21.142331
          ],
          [
            79.0796641,
            21.142345
          ],
          [
            79.0796656,
            21.1423464
          ]
        ]
      }
    },
    {
      "type": "Feature",
      "properties": {},
      "geometry": {
        "type": "LineString",
        "coordinates": [
          [
            79.0796189,
            21.1423338
          ],
          [
            79.0796128,
            21.1423942
          ],
          [
            79.0796671,
            21.142428
          ],
          [
            79.0796686,
            21.1424294
          ]
        ]
      }
    },
    {
      "type": "Feature",
      "properties": {},
      "geometry": {
        "type": "LineString",
        "coordinates": [
          [
            79.0796143,
            21.1422705
          ],
          [
            79.0796234,
            21.1422593
          ],
          [
            79.0797063,
            21.1422572
          ],
          [
            79.0797681,
            21.1422811
          ]
        ]
      }
    },
    {
      "type": "Feature",
      "properties": {},
      "geometry": {
        "type": "LineString",
        "coordinates": [
          [
            79.0796354,
            21.1424132
          ],
          [
            79.0796641,
            21.1423907
          ],
          [
            79.0796822,
            21.1423921
          ]
        ]
      }
    },
    {
      "type": "Feature",
      "properties": {},
      "geometry": {
        "type": "LineString",
        "coordinates": [
          [
            79.0797409,
            21.1421251
          ],
          [
            79.0797409,
            21.1421251
          ],
          [
            79.0796746,
            21.1421026
          ],
          [
            79.0796746,
            21.1421012
          ]
        ]
      }
    },
    {
      "type": "Feature",
      "properties": {},
      "geometry": {
        "type": "LineString",
        "coordinates": [
          [
            79.0797681,
            21.1420801
          ],
          [
            79.0798675,
            21.1421433
          ]
        ]
      }
    },
    {
      "type": "Feature",
      "properties": {},
      "geometry": {
        "type": "LineString",
        "coordinates": [
          [
            79.0799574,
            21.1419508
          ],
          [
            79.0799303,
            21.1419915
          ],
          [
            79.079965,
            21.1420168
          ]
        ]
      }
    },
    {
      "type": "Feature",
      "properties": {},
      "geometry": {
        "type": "LineString",
        "coordinates": [
          [
            79.080392,
            21.1436773
          ],
          [
            79.0803655,
            21.1437018
          ],
          [
            79.0802512,
            21.1437281
          ],
          [
            79.0802391,
            21.1437482
          ],
          [
            79.0802135,
            21.1437331
          ],
          [
            79.0801005,
            21.1437503
          ],
          [
            79.0800653,
            21.1437284
          ],
          [
            79.0800653,
            21.1437284
          ]
        ]
      }
    },
    {
      "type": "Feature",
      "properties": {},
      "geometry": {
        "type": "LineString",
        "coordinates": [
          [
            79.079993,
            21.1437419
          ],
          [
            79.0799728,
            21.1437633
          ],
          [
            79.07988,
            21.1437896
          ],
          [
            79.0798598,
            21.1438072
          ],
          [
            79.0798356,
            21.1437971
          ],
          [
            79.0797414,
            21.1438122
          ],
          [
            79.079693,
            21.1437959
          ]
        ]
      }
    },
    {
      "type": "Feature",
      "properties": {},
      "geometry": {
        "type": "LineString",
        "coordinates": [
          [
            79.0794309,
            21.1438608
          ],
          [
            79.079443,
            21.143911
          ],
          [
            79.0794444,
            21.1440226
          ],
          [
            79.079447,
            21.1440214
          ]
        ]
      }
    },
    {
      "type": "Feature",
      "properties": {},
      "geometry": {
        "type": "LineString",
        "coordinates": [
          [
            79.0794403,
            21.1439123
          ],
          [
            79.079599,
            21.1438934
          ],
          [
            79.0796112,
            21.1440026
          ],
          [
            79.0796112,
            21.1440014
          ]
        ]
      }
    },
    {
      "type": "Feature",
      "properties": {},
      "geometry": {
        "type": "LineString",
        "coordinates": [
          [
            79.0794955,
            21.1439311
          ],
          [
            79.0794934,
            21.1439053
          ]
        ]
      }
    },
    {
      "type": "Feature",
      "properties": {},
      "geometry": {
        "type": "LineString",
        "coordinates": [
          [
            79.0791855,
            21.1439078
          ],
          [
            79.0791869,
            21.1439328
          ],
          [
            79.0791331,
            21.1439379
          ],
          [
            79.079121,
            21.1439604
          ]
        ]
      }
    },
    {
      "type": "Feature",
      "properties": {},
      "geometry": {
        "type": "LineString",
        "coordinates": [
          [
            79.0791138,
            21.1439639
          ],
          [
            79.0790922,
            21.1439464
          ],
          [
            79.0790263,
            21.1439539
          ],
          [
            79.0789994,
            21.1439276
          ],
          [
            79.0789994,
            21.1439276
          ],
          [
            79.0789994,
            21.1439276
          ]
        ]
      }
    },
    {
      "type": "Feature",
      "properties": {},
      "geometry": {
        "type": "LineString",
        "coordinates": [
          [
            79.0787587,
            21.1439765
          ],
          [
            79.0787587,
            21.1440003
          ],
          [
            79.0787035,
            21.1440141
          ],
          [
            79.0786995,
            21.1440354
          ],
          [
            79.0786672,
            21.1440204
          ],
          [
            79.0785865,
            21.1440405
          ],
          [
            79.0785381,
            21.1440229
          ],
          [
            79.0785381,
            21.1440229
          ]
        ]
      }
    },
    {
      "type": "Feature",
      "properties": {},
      "geometry": {
        "type": "LineString",
        "coordinates": [
          [
            79.0786868,
            21.1440435
          ],
          [
            79.078738,
            21.1441152
          ],
          [
            79.0787949,
            21.1440939
          ]
        ]
      }
    },
    {
      "type": "Feature",
      "properties": {},
      "geometry": {
        "type": "LineString",
        "coordinates": [
          [
            79.0786925,
            21.1440356
          ],
          [
            79.0786555,
            21.1440886
          ]
        ]
      }
    },
    {
      "type": "Feature",
      "properties": {},
      "geometry": {
        "type": "LineString",
        "coordinates": [
          [
            79.0784308,
            21.1440435
          ],
          [
            79.0784308,
            21.1441629
          ],
          [
            79.0784991,
            21.1441682
          ],
          [
            79.0785304,
            21.1442319
          ]
        ]
      }
    },
    {
      "type": "Feature",
      "properties": {},
      "geometry": {
        "type": "LineString",
        "coordinates": [
          [
            79.0791078,
            21.1439692
          ],
          [
            79.0791334,
            21.1439825
          ],
          [
            79.0790907,
            21.1440223
          ],
          [
            79.0790907,
            21.144025
          ]
        ]
      }
    },
    {
      "type": "Feature",
      "properties": {},
      "geometry": {
        "type": "LineString",
        "coordinates": [
          [
            79.0791106,
            21.1439533
          ],
          [
            79.0791135,
            21.1439586
          ],
          [
            79.079196,
            21.1439613
          ],
          [
            79.0791931,
            21.1439958
          ]
        ]
      }
    },
    {
      "type": "Feature",
      "properties": {},
      "geometry": {
        "type": "LineString",
        "coordinates": [
          [
            79.0798577,
            21.1438056
          ],
          [
            79.0798587,
            21.1438578
          ],
          [
            79.0798217,
            21.143879
          ]
        ]
      }
    },
    {
      "type": "Feature",
      "properties": {},
      "geometry": {
        "type": "LineString",
        "coordinates": [
          [
            79.079859,
            21.1438068
          ],
          [
            79.0798786,
            21.1438392
          ],
          [
            79.0799213,
            21.1438419
          ]
        ]
      }
    },
    {
      "type": "Feature",
      "properties": {},
      "geometry": {
        "type": "LineString",
        "coordinates": [
          [
            79.0802396,
            21.1437477
          ],
          [
            79.080163,
            21.1438127
          ]
        ]
      }
    },
    {
      "type": "Feature",
      "properties": {},
      "geometry": {
        "type": "LineString",
        "coordinates": [
          [
            79.0802388,
            21.1437484
          ],
          [
            79.080274,
            21.1437809
          ]
        ]
      }
    },
    {
      "type": "Feature",
      "properties": {},
      "geometry": {
        "type": "LineString",
        "coordinates": [
          [
            79.0808846,
            21.143524
          ],
          [
            79.0807758,
            21.1435929
          ],
          [
            79.0807758,
            21.1435929
          ]
        ]
      }
    },
    {
      "type": "Feature",
      "properties": {},
      "geometry": {
        "type": "LineString",
        "coordinates": [
          [
            79.0808792,
            21.1435261
          ],
          [
            79.0809746,
            21.1434071
          ],
          [
            79.0809732,
            21.1434109
          ],
          [
            79.0811008,
            21.1433608
          ],
          [
            79.081219,
            21.1432756
          ],
          [
            79.0813291,
            21.1431942
          ],
          [
            79.0814124,
            21.143114
          ],
          [
            79.0814124,
            21.143114
          ],
          [
            79.0814124,
            21.143114
          ]
        ]
      }
    },
    {
      "type": "Feature",
      "properties": {},
      "geometry": {
        "type": "LineString",
        "coordinates": [
          [
            79.0808734,
            21.143516
          ],
          [
            79.0808632,
            21.1432503
          ],
          [
            79.0808393,
            21.1431041
          ],
          [
            79.0807964,
            21.1429607
          ],
          [
            79.0807384,
            21.1427191
          ],
          [
            79.0806621,
            21.1423753
          ],
          [
            79.0805547,
            21.1420187
          ],
          [
            79.080516,
            21.1418553
          ],
          [
            79.0804803,
            21.1416887
          ],
          [
            79.0804305,
            21.1415342
          ],
          [
            79.0803937,
            21.1413556
          ]
        ]
      }
    },
    {
      "type": "Feature",
      "properties": {},
      "geometry": {
        "type": "LineString",
        "coordinates": [
          [
            79.0806271,
            21.142903
          ],
          [
            79.0805885,
            21.1429234
          ],
          [
            79.080549,
            21.1429243
          ],
          [
            79.080549,
            21.1429251
          ],
          [
            79.080549,
            21.1429251
          ]
        ]
      }
    },
    {
      "type": "Feature",
      "properties": {},
      "geometry": {
        "type": "LineString",
        "coordinates": [
          [
            79.0806104,
            21.1428073
          ]
        ]
      }
    },
    {
      "type": "Feature",
      "properties": {},
      "geometry": {
        "type": "LineString",
        "coordinates": [
          [
            79.080609,
            21.1428
          ],
          [
            79.0805608,
            21.1428093
          ],
          [
            79.0804986,
            21.1428031
          ],
          [
            79.0804986,
            21.1428031
          ]
        ]
      }
    },
    {
      "type": "Feature",
      "properties": {},
      "geometry": {
        "type": "LineString",
        "coordinates": [
          [
            79.0804767,
            21.1422747
          ],
          [
            79.0804617,
            21.1422847
          ],
          [
            79.0804355,
            21.1422839
          ]
        ]
      }
    },
    {
      "type": "Feature",
      "properties": {},
      "geometry": {
        "type": "LineString",
        "coordinates": [
          [
            79.0808379,
            21.1431486
          ],
          [
            79.0809331,
            21.1431256
          ],
          [
            79.0812702,
            21.1432339
          ],
          [
            79.0812702,
            21.1432339
          ]
        ]
      }
    },
    {
      "type": "Feature",
      "properties": {},
      "geometry": {
        "type": "LineString",
        "coordinates": [
          [
            79.0809274,
            21.1431327
          ],
          [
            79.0809446,
            21.1430598
          ],
          [
            79.0810304,
            21.1430347
          ],
          [
            79.0810285,
            21.1430312
          ]
        ]
      }
    },
    {
      "type": "Feature",
      "properties": {},
      "geometry": {
        "type": "LineString",
        "coordinates": [
          [
            79.0807543,
            21.1428269
          ],
          [
            79.0807962,
            21.1428003
          ],
          [
            79.080779,
            21.142731
          ],
          [
            79.0807981,
            21.142715
          ],
          [
            79.0807809,
            21.1426991
          ],
          [
            79.0807638,
            21.1426387
          ],
          [
            79.0807162,
            21.142612
          ]
        ]
      }
    },
    {
      "type": "Feature",
      "properties": {},
      "geometry": {
        "type": "LineString",
        "coordinates": [
          [
            79.080798,
            21.1427154
          ],
          [
            79.0808381,
            21.1427577
          ],
          [
            79.0808933,
            21.1427239
          ],
          [
            79.0808952,
            21.1427221
          ]
        ]
      }
    },
    {
      "type": "Feature",
      "properties": {},
      "geometry": {
        "type": "LineString",
        "coordinates": [
          [
            79.0807977,
            21.142716
          ],
          [
            79.0808114,
            21.1426618
          ],
          [
            79.0808323,
            21.142612
          ],
          [
            79.0808857,
            21.1426174
          ]
        ]
      }
    },
    {
      "type": "Feature",
      "properties": {},
      "geometry": {
        "type": "LineString",
        "coordinates": [
          [
            79.0806979,
            21.1425659
          ],
          [
            79.0808741,
            21.1424624
          ],
          [
            79.0806662,
            21.1423793
          ]
        ]
      }
    },
    {
      "type": "Feature",
      "properties": {},
      "geometry": {
        "type": "LineString",
        "coordinates": [
          [
            79.0808074,
            21.1423141
          ],
          [
            79.0808787,
            21.1423723
          ],
          [
            79.0808688,
            21.1424638
          ],
          [
            79.0809296,
            21.1424975
          ],
          [
            79.080991,
            21.1424957
          ],
          [
            79.0810312,
            21.1424601
          ]
        ]
      }
    },
    {
      "type": "Feature",
      "properties": {},
      "geometry": {
        "type": "LineString",
        "coordinates": [
          [
            79.0805835,
            21.1421281
          ],
          [
            79.0808103,
            21.1420284
          ],
          [
            79.0806647,
            21.1419813
          ],
          [
            79.0806888,
            21.1418719
          ]
        ]
      }
    },
    {
      "type": "Feature",
      "properties": {},
      "geometry": {
        "type": "LineString",
        "coordinates": [
          [
            79.0806849,
            21.1418747
          ],
          [
            79.0806017,
            21.1418008
          ],
          [
            79.0805997,
            21.141774
          ],
          [
            79.080576,
            21.1417435
          ],
          [
            79.0804888,
            21.1417232
          ]
        ]
      }
    },
    {
      "type": "Feature",
      "properties": {},
      "geometry": {
        "type": "LineString",
        "coordinates": [
          [
            79.0808047,
            21.1420308
          ],
          [
            79.0808027,
            21.1420963
          ],
          [
            79.0808631,
            21.1421093
          ],
          [
            79.0808621,
            21.1421111
          ],
          [
            79.0808611,
            21.1421111
          ]
        ]
      }
    },
    {
      "type": "Feature",
      "properties": {},
      "geometry": {
        "type": "LineString",
        "coordinates": [
          [
            79.0808072,
            21.1420289
          ],
          [
            79.080881,
            21.1419749
          ],
          [
            79.0808825,
            21.1419749
          ],
          [
            79.0809132,
            21.1419388
          ],
          [
            79.0809067,
            21.1419028
          ]
        ]
      }
    },
    {
      "type": "Feature",
      "properties": {},
      "geometry": {
        "type": "LineString",
        "coordinates": [
          [
            79.0808072,
            21.1420307
          ],
          [
            79.0809624,
            21.1420283
          ],
          [
            79.0809909,
            21.1419892
          ],
          [
            79.0810297,
            21.1419965
          ]
        ]
      }
    },
    {
      "type": "Feature",
      "properties": {},
      "geometry": {
        "type": "LineString",
        "coordinates": [
          [
            79.0809594,
            21.1420288
          ],
          [
            79.0809817,
            21.1421087
          ],
          [
            79.0809817,
            21.1421087
          ],
          [
            79.0810719,
            21.1421248
          ]
        ]
      }
    },
    {
      "type": "Feature",
      "properties": {},
      "geometry": {
        "type": "LineString",
        "coordinates": [
          [
            79.0810716,
            21.1421248
          ],
          [
            79.0811227,
            21.1420902
          ],
          [
            79.0811118,
            21.1420043
          ],
          [
            79.0811118,
            21.1420043
          ]
        ]
      }
    },
    {
      "type": "Feature",
      "properties": {},
      "geometry": {
        "type": "LineString",
        "coordinates": [
          [
            79.0806265,
            21.1422873
          ],
          [
            79.08115,
            21.1422536
          ],
          [
            79.0812775,
            21.142456
          ],
          [
            79.0813722,
            21.1424993
          ],
          [
            79.0813722,
            21.1424993
          ],
          [
            79.0813531,
            21.1426729
          ],
          [
            79.0815546,
            21.1428431
          ],
          [
            79.0816097,
            21.142909
          ],
          [
            79.0814047,
            21.1431178
          ]
        ]
      }
    },
    {
      "type": "Feature",
      "properties": {},
      "geometry": {
        "type": "LineString",
        "coordinates": [
          [
            79.0816028,
            21.1429154
          ],
          [
            79.0817991,
            21.1427226
          ],
          [
            79.0817991,
            21.1427226
          ],
          [
            79.0819058,
            21.1425652
          ],
          [
            79.0819058,
            21.1425652
          ],
          [
            79.0820571,
            21.1422989
          ],
          [
            79.0820571,
            21.1422989
          ],
          [
            79.0821174,
            21.1421897
          ],
          [
            79.0822793,
            21.1418459
          ],
          [
            79.0823395,
            21.1417014
          ]
        ]
      }
    },
    {
      "type": "Feature",
      "properties": {},
      "geometry": {
        "type": "LineString",
        "coordinates": [
          [
            79.080791,
            21.1429525
          ],
          [
            79.0810759,
            21.1427145
          ],
          [
            79.08107,
            21.1428135
          ]
        ]
      }
    },
    {
      "type": "Feature",
      "properties": {},
      "geometry": {
        "type": "LineString",
        "coordinates": [
          [
            79.08107,
            21.14272
          ],
          [
            79.0812357,
            21.1427656
          ]
        ]
      }
    },
    {
      "type": "Feature",
      "properties": {},
      "geometry": {
        "type": "LineString",
        "coordinates": [
          [
            79.08107,
            21.1427223
          ],
          [
            79.0812536,
            21.1426644
          ],
          [
            79.0812524,
            21.1426644
          ]
        ]
      }
    },
    {
      "type": "Feature",
      "properties": {},
      "geometry": {
        "type": "LineString",
        "coordinates": [
          [
            79.0810688,
            21.14272
          ],
          [
            79.0811725,
            21.1425521
          ]
        ]
      }
    },
    {
      "type": "Feature",
      "properties": {},
      "geometry": {
        "type": "LineString",
        "coordinates": [
          [
            79.08146,
            21.1427661
          ],
          [
            79.0815625,
            21.1427391
          ],
          [
            79.0815625,
            21.142737
          ],
          [
            79.0815625,
            21.142737
          ]
        ]
      }
    },
    {
      "type": "Feature",
      "properties": {},
      "geometry": {
        "type": "LineString",
        "coordinates": [
          [
            79.0814576,
            21.1427682
          ],
          [
            79.0814498,
            21.1426612
          ],
          [
            79.0814498,
            21.1426612
          ]
        ]
      }
    },
    {
      "type": "Feature",
      "properties": {},
      "geometry": {
        "type": "LineString",
        "coordinates": [
          [
            79.0817373,
            21.1427807
          ],
          [
            79.0817618,
            21.1427079
          ],
          [
            79.0817072,
            21.1426809
          ]
        ]
      }
    },
    {
      "type": "Feature",
      "properties": {},
      "geometry": {
        "type": "LineString",
        "coordinates": [
          [
            79.081839,
            21.1426594
          ],
          [
            79.0818312,
            21.1426386
          ],
          [
            79.0817961,
            21.1426205
          ],
          [
            79.0817961,
            21.1426205
          ]
        ]
      }
    },
    {
      "type": "Feature",
      "properties": {},
      "geometry": {
        "type": "LineString",
        "coordinates": [
          [
            79.0818696,
            21.1426164
          ],
          [
            79.0818518,
            21.1426049
          ],
          [
            79.0818507,
            21.1425665
          ]
        ]
      }
    },
    {
      "type": "Feature",
      "properties": {},
      "geometry": {
        "type": "LineString",
        "coordinates": [
          [
            79.0819008,
            21.1425665
          ],
          [
            79.0818128,
            21.1425
          ],
          [
            79.0818128,
            21.1425021
          ],
          [
            79.0818696,
            21.1424397
          ],
          [
            79.0818696,
            21.1424397
          ]
        ]
      }
    },
    {
      "type": "Feature",
      "properties": {},
      "geometry": {
        "type": "LineString",
        "coordinates": [
          [
            79.0818103,
            21.142501
          ],
          [
            79.0818103,
            21.1425018
          ],
          [
            79.0817437,
            21.1425078
          ],
          [
            79.0817437,
            21.1425078
          ]
        ]
      }
    },
    {
      "type": "Feature",
      "properties": {},
      "geometry": {
        "type": "LineString",
        "coordinates": [
          [
            79.0818133,
            21.142503
          ],
          [
            79.081797,
            21.1424125
          ]
        ]
      }
    },
    {
      "type": "Feature",
      "properties": {},
      "geometry": {
        "type": "LineString",
        "coordinates": [
          [
            79.081371,
            21.1425033
          ],
          [
            79.0814739,
            21.1424757
          ],
          [
            79.0814701,
            21.1424709
          ],
          [
            79.0814482,
            21.1424337
          ],
          [
            79.0814482,
            21.1424337
          ]
        ]
      }
    },
    {
      "type": "Feature",
      "properties": {},
      "geometry": {
        "type": "LineString",
        "coordinates": [
          [
            79.0814688,
            21.1424781
          ],
          [
            79.0815331,
            21.1424337
          ]
        ]
      }
    },
    {
      "type": "Feature",
      "properties": {},
      "geometry": {
        "type": "LineString",
        "coordinates": [
          [
            79.0812732,
            21.1424601
          ],
          [
            79.0813169,
            21.1423965
          ],
          [
            79.0813787,
            21.1423413
          ],
          [
            79.0813787,
            21.1423413
          ],
          [
            79.0814649,
            21.1423665
          ]
        ]
      }
    },
    {
      "type": "Feature",
      "properties": {},
      "geometry": {
        "type": "LineString",
        "coordinates": [
          [
            79.0813131,
            21.1424001
          ],
          [
            79.0813195,
            21.1422837
          ]
        ]
      }
    },
    {
      "type": "Feature",
      "properties": {},
      "geometry": {
        "type": "LineString",
        "coordinates": [
          [
            79.0811483,
            21.1422537
          ],
          [
            79.0812127,
            21.1422237
          ]
        ]
      }
    },
    {
      "type": "Feature",
      "properties": {},
      "geometry": {
        "type": "LineString",
        "coordinates": [
          [
            79.0820804,
            21.1422379
          ],
          [
            79.0818863,
            21.1421493
          ],
          [
            79.0814363,
            21.1420992
          ],
          [
            79.0812339,
            21.1421108
          ],
          [
            79.0810812,
            21.1422648
          ],
          [
            79.0810729,
            21.1422648
          ]
        ]
      }
    },
    {
      "type": "Feature",
      "properties": {},
      "geometry": {
        "type": "LineString",
        "coordinates": [
          [
            79.0812296,
            21.142115
          ],
          [
            79.0812232,
            21.1420598
          ],
          [
            79.0812232,
            21.1420574
          ]
        ]
      }
    },
    {
      "type": "Feature",
      "properties": {},
      "geometry": {
        "type": "LineString",
        "coordinates": [
          [
            79.0821966,
            21.142017
          ],
          [
            79.0821477,
            21.1419942
          ],
          [
            79.0820897,
            21.1419571
          ]
        ]
      }
    },
    {
      "type": "Feature",
      "properties": {},
      "geometry": {
        "type": "LineString",
        "coordinates": [
          [
            79.0816358,
            21.142122
          ],
          [
            79.0816469,
            21.1422394
          ],
          [
            79.0816298,
            21.1423211
          ],
          [
            79.0817002,
            21.142353
          ],
          [
            79.0817002,
            21.142353
          ],
          [
            79.0817002,
            21.1423521
          ]
        ]
      }
    },
    {
      "type": "Feature",
      "properties": {},
      "geometry": {
        "type": "LineString",
        "coordinates": [
          [
            79.0816278,
            21.1423239
          ],
          [
            79.0815734,
            21.1423023
          ]
        ]
      }
    },
    {
      "type": "Feature",
      "properties": {},
      "geometry": {
        "type": "LineString",
        "coordinates": [
          [
            79.08163,
            21.1423217
          ],
          [
            79.0815744,
            21.1423399
          ],
          [
            79.0814939,
            21.1423145
          ]
        ]
      }
    },
    {
      "type": "Feature",
      "properties": {},
      "geometry": {
        "type": "LineString",
        "coordinates": [
          [
            79.0814931,
            21.142217
          ],
          [
            79.0815765,
            21.1421936
          ],
          [
            79.0815574,
            21.1421129
          ]
        ]
      }
    },
    {
      "type": "Feature",
      "properties": {},
      "geometry": {
        "type": "LineString",
        "coordinates": [
          [
            79.0820394,
            21.1423216
          ],
          [
            79.0820283,
            21.1423038
          ],
          [
            79.081983,
            21.1423029
          ],
          [
            79.081983,
            21.1423029
          ]
        ]
      }
    },
    {
      "type": "Feature",
      "properties": {},
      "geometry": {
        "type": "LineString",
        "coordinates": [
          [
            79.0820042,
            21.1423845
          ],
          [
            79.081971,
            21.142362
          ],
          [
            79.081971,
            21.142362
          ],
          [
            79.081971,
            21.142361
          ]
        ]
      }
    },
    {
      "type": "Feature",
      "properties": {},
      "geometry": {
        "type": "LineString",
        "coordinates": [
          [
            79.0818865,
            21.1421538
          ],
          [
            79.081795,
            21.1422494
          ],
          [
            79.081785,
            21.1422841
          ],
          [
            79.081795,
            21.142331
          ],
          [
            79.081795,
            21.142331
          ],
          [
            79.0818252,
            21.1423338
          ]
        ]
      }
    },
    {
      "type": "Feature",
      "properties": {},
      "geometry": {
        "type": "LineString",
        "coordinates": [
          [
            79.0817824,
            21.1422866
          ],
          [
            79.0817472,
            21.1422866
          ]
        ]
      }
    },
    {
      "type": "Feature",
      "properties": {},
      "geometry": {
        "type": "LineString",
        "coordinates": [
          [
            79.0817929,
            21.1422544
          ],
          [
            79.0818332,
            21.1422751
          ]
        ]
      }
    },
    {
      "type": "Feature",
      "properties": {},
      "geometry": {
        "type": "LineString",
        "coordinates": [
          [
            79.0814044,
            21.1431172
          ],
          [
            79.0813421,
            21.1430983
          ],
          [
            79.0813305,
            21.1430227
          ],
          [
            79.0813305,
            21.1430227
          ]
        ]
      }
    },
    {
      "type": "Feature",
      "properties": {},
      "geometry": {
        "type": "LineString",
        "coordinates": [
          [
            79.0814869,
            21.143032
          ],
          [
            79.0814405,
            21.1430347
          ],
          [
            79.0814261,
            21.1429645
          ],
          [
            79.0814261,
            21.1429645
          ]
        ]
      }
    },
    {
      "type": "Feature",
      "properties": {},
      "geometry": {
        "type": "LineString",
        "coordinates": [
          [
            79.0815361,
            21.1429807
          ],
          [
            79.0815419,
            21.1429308
          ],
          [
            79.0814753,
            21.1428957
          ]
        ]
      }
    },
    {
      "type": "Feature",
      "properties": {},
      "geometry": {
        "type": "LineString",
        "coordinates": [
          [
            79.0808539,
            21.1435333
          ],
          [
            79.0807978,
            21.1437748
          ],
          [
            79.0809441,
            21.1443129
          ],
          [
            79.0809441,
            21.1447557
          ],
          [
            79.0809441,
            21.1447557
          ]
        ]
      }
    },
    {
      "type": "Feature",
      "properties": {},
      "geometry": {
        "type": "LineString",
        "coordinates": [
          [
            79.0807931,
            21.1437768
          ],
          [
            79.0806852,
            21.1437003
          ],
          [
            79.0805989,
            21.1436359
          ]
        ]
      }
    },
    {
      "type": "Feature",
      "properties": {},
      "geometry": {
        "type": "LineString",
        "coordinates": [
          [
            79.0808706,
            21.143531
          ],
          [
            79.0809915,
            21.1436277
          ],
          [
            79.0810462,
            21.1441137
          ],
          [
            79.0810775,
            21.1442983
          ]
        ]
      }
    },
    {
      "type": "Feature",
      "properties": {},
      "geometry": {
        "type": "LineString",
        "coordinates": [
          [
            79.0805295,
            21.1439115
          ],
          [
            79.0806489,
            21.143963
          ],
          [
            79.0807913,
            21.1437769
          ],
          [
            79.0807913,
            21.1437753
          ]
        ]
      }
    },
    {
      "type": "Feature",
      "properties": {},
      "geometry": {
        "type": "LineString",
        "coordinates": [
          [
            79.0806435,
            21.1439665
          ],
          [
            79.0806578,
            21.1440878
          ],
          [
            79.0806095,
            21.1441322
          ]
        ]
      }
    },
    {
      "type": "Feature",
      "properties": {},
      "geometry": {
        "type": "LineString",
        "coordinates": [
          [
            79.0796381,
            21.1438132
          ],
          [
            79.0797379,
            21.1442302
          ],
          [
            79.0800139,
            21.1442518
          ],
          [
            79.0800139,
            21.1442534
          ],
          [
            79.0800139,
            21.1442534
          ]
        ]
      }
    },
    {
      "type": "Feature",
      "properties": {},
      "geometry": {
        "type": "LineString",
        "coordinates": [
          [
            79.0803809,
            21.1436803
          ],
          [
            79.0804058,
            21.1438747
          ],
          [
            79.0803256,
            21.1439627
          ],
          [
            79.0802402,
            21.1440641
          ],
          [
            79.0802402,
            21.1440641
          ]
        ]
      }
    },
    {
      "type": "Feature",
      "properties": {},
      "geometry": {
        "type": "LineString",
        "coordinates": [
          [
            79.0803132,
            21.143976
          ],
          [
            79.0803631,
            21.1440391
          ],
          [
            79.0804094,
            21.1440391
          ]
        ]
      }
    },
    {
      "type": "Feature",
      "properties": {},
      "geometry": {
        "type": "LineString",
        "coordinates": [
          [
            79.0803363,
            21.1439494
          ],
          [
            79.0803399,
            21.1438996
          ]
        ]
      }
    },
    {
      "type": "Feature",
      "properties": {},
      "geometry": {
        "type": "LineString",
        "coordinates": [
          [
            79.0813674,
            21.142503
          ],
          [
            79.0815368,
            21.1425222
          ],
          [
            79.0816317,
            21.1425126
          ],
          [
            79.0817408,
            21.1425712
          ],
          [
            79.0818113,
            21.1425006
          ],
          [
            79.0818113,
            21.1425006
          ]
        ]
      }
    },
    {
      "type": "Feature",
      "properties": {},
      "geometry": {
        "type": "LineString",
        "coordinates": [
          [
            79.0798162,
            21.1419649
          ],
          [
            79.0788794,
            21.1420642
          ],
          [
            79.078689,
            21.1423839
          ],
          [
            79.0782576,
            21.1421986
          ],
          [
            79.0780167,
            21.1424767
          ]
        ]
      }
    },
    {
      "type": "Feature",
      "properties": {},
      "geometry": {
        "type": "LineString",
        "coordinates": [
          [
            79.0788542,
            21.142079
          ],
          [
            79.0791665,
            21.141801
          ],
          [
            79.0793581,
            21.1415495
          ],
          [
            79.0790388,
            21.1413641
          ]
        ]
      }
    },
    {
      "type": "Feature",
      "properties": {},
      "geometry": {
        "type": "LineString",
        "coordinates": [
          [
            79.0790955,
            21.1418672
          ],
          [
            79.0789891,
            21.1415561
          ]
        ]
      }
    },
    {
      "type": "Feature",
      "properties": {},
      "geometry": {
        "type": "LineString",
        "coordinates": [
          [
            79.0797982,
            21.141993
          ],
          [
            79.079784,
            21.1415693
          ]
        ]
      }
    },
    {
      "type": "Feature",
      "properties": {},
      "geometry": {
        "type": "LineString",
        "coordinates": [
          [
            79.0797911,
            21.1419863
          ],
          [
            79.0800679,
            21.1417414
          ],
          [
            79.0800679,
            21.1417414
          ]
        ]
      }
    },
    {
      "type": "Feature",
      "properties": {},
      "geometry": {
        "type": "LineString",
        "coordinates": [
          [
            79.0796763,
            21.1429267
          ],
          [
            79.079739,
            21.1428361
          ],
          [
            79.0798079,
            21.1428712
          ],
          [
            79.0798047,
            21.1428683
          ],
          [
            79.0798522,
            21.1428328
          ]
        ]
      }
    },
    {
      "type": "Feature",
      "properties": {},
      "geometry": {
        "type": "LineString",
        "coordinates": [
          [
            79.0805162,
            21.1434968
          ],
          [
            79.0806601,
            21.1433366
          ],
          [
            79.0807019,
            21.1432327
          ]
        ]
      }
    }
  ]
}