{
  "type": "FeatureCollection",
  "features": [
    {
      "type": "Feature",
      "properties": {},
      "geometry": {
        "type": "LineString",
        "coordinates": [
          [
            79.0807006,
            21.1447021
          ],
          [
            79.080714,
            21.1444426
          ],
          [
            79.0807408,
            21.1441893
          ],
          [
            79.0808314,
            21.1438672
          ],
          [
            79.0808951,
            21.1437265
          ],
          [
            79.0807643,
            21.1431667
          ],
          [
            79.0807073,
            21.142904
          ],
          [
            79.0805346,
            21.1423356
          ],
          [
            79.0804596,
            21.1420408
          ],
          [
            79.0803283,
            21.1416026
          ],
          [
            79.0802745,
            21.1413616
          ],
          [
            79.0802621,
            21.1413616
          ]
        ]
      }
    },
    {
      "type": "Feature",
      "properties": {},
      "geometry": {
        "type": "LineString",
        "coordinates": [
          [
            79.0810409,
            21.1435194
          ],
          [
            79.0809887,
            21.1435727
          ],
          [
            79.081031,
            21.1438647
          ],
          [
            79.0810583,
            21.1439528
          ],
          [
            79.0810881,
            21.1441799
          ],
          [
            79.0811378,
            21.1445461
          ],
          [
            79.0811701,
            21.1447083
          ],
          [
            79.0814341,
            21.1446662
          ],
          [
            79.0814738,
            21.1445967
          ],
          [
            79.081864,
            21.1445898
          ],
          [
            79.0818267,
            21.1444438
          ],
          [
            79.0818341,
            21.1442074
          ],
          [
            79.081854,
            21.1441124
          ],
          [
            79.0818938,
            21.1440591
          ],
          [
            79.0819733,
            21.1438041
          ],
          [
            79.081526,
            21.1436883
          ],
          [
            79.0812403,
            21.1436164
          ],
          [
            79.0811632,
            21.1435956
          ],
          [
            79.081044,
            21.1435237
          ],
          [
            79.0810415,
            21.1435237
          ]
        ]
      }
    },
    {
      "type": "Feature",
      "properties": {},
      "geometry": {
        "type": "LineString",
        "coordinates": [
          [
            79.0810242,
            21.1438644
          ],
          [
            79.0812951,
            21.1438273
          ],
          [
            79.0813224,
            21.1438899
          ],
          [
            79.0813572,
            21.1440822
          ],
          [
            79.0814044,
            21.1443001
          ],
          [
            79.0814317,
            21.1444368
          ],
          [
            79.0814988,
            21.1444136
          ],
          [
            79.0816355,
            21.144409
          ],
          [
            79.0818243,
            21.1443928
          ],
          [
            79.0818243,
            21.1443928
          ]
        ]
      }
    },
    {
      "type": "Feature",
      "properties": {},
      "geometry": {
        "type": "LineString",
        "coordinates": [
          [
            79.0814665,
            21.1446014
          ],
          [
            79.081474,
            21.1445272
          ],
          [
            79.0814342,
            21.1444414
          ]
        ]
      }
    },
    {
      "type": "Feature",
      "properties": {},
      "geometry": {
        "type": "LineString",
        "coordinates": [
          [
            79.0811187,
            21.1444693
          ],
          [
            79.0812432,
            21.1444672
          ],
          [
            79.0812628,
            21.1444461
          ],
          [
            79.0812628,
            21.1444461
          ]
        ]
      }
    },
    {
      "type": "Feature",
      "properties": {},
      "geometry": {
        "type": "LineString",
        "coordinates": [
          [
            79.081084,
            21.1441891
          ],
          [
            79.0812331,
            21.1441682
          ],
          [
            79.0812455,
            21.1441497
          ],
          [
            79.0812455,
            21.1441497
          ],
          [
            79.0812455,
            21.1441497
          ]
        ]
      }
    },
    {
      "type": "Feature",
      "properties": {},
      "geometry": {
        "type": "LineString",
        "coordinates": [
          [
            79.0810544,
            21.1439643
          ],
          [
            79.0811786,
            21.1439597
          ],
          [
            79.0811861,
            21.1439435
          ],
          [
            79.0811836,
            21.1439412
          ],
          [
            79.0811836,
            21.1439365
          ]
        ]
      }
    },
    {
      "type": "Feature",
      "properties": {},
      "geometry": {
        "type": "LineString",
        "coordinates": [
          [
            79.0814217,
            21.1436737
          ],
          [
            79.0814011,
            21.1437602
          ],
          [
            79.0814251,
            21.1437762
          ]
        ]
      }
    },
    {
      "type": "Feature",
      "properties": {},
      "geometry": {
        "type": "LineString",
        "coordinates": [
          [
            79.0816311,
            21.1437372
          ],
          [
            79.0816174,
            21.1437885
          ],
          [
            79.0815831,
            21.1438045
          ]
        ]
      }
    },
    {
      "type": "Feature",
      "properties": {},
      "geometry": {
        "type": "LineString",
        "coordinates": [
          [
            79.0818406,
            21.1437885
          ],
          [
            79.0818131,
            21.1438814
          ],
          [
            79.0818372,
            21.143907
          ]
        ]
      }
    },
    {
      "type": "Feature",
      "properties": {},
      "geometry": {
        "type": "LineString",
        "coordinates": [
          [
            79.0824106,
            21.1438782
          ],
          [
            79.0820466,
            21.1437949
          ],
          [
            79.0818028,
            21.1437276
          ],
          [
            79.0815796,
            21.1436636
          ],
          [
            79.0813187,
            21.1436059
          ],
          [
            79.0812019,
            21.1435611
          ],
          [
            79.0811332,
            21.1435035
          ],
          [
            79.0813908,
            21.1432697
          ],
          [
            79.0816792,
            21.1429814
          ],
          [
            79.0819539,
            21.1426996
          ],
          [
            79.0820689,
            21.1424702
          ],
          [
            79.0821016,
            21.142296
          ],
          [
            79.0822583,
            21.1419613
          ],
          [
            79.0823143,
            21.1417953
          ],
          [
            79.0824783,
            21.1415031
          ],
          [
            79.0824783,
            21.1415115
          ],
          [
            79.0824753,
            21.1415087
          ],
          [
            79.0825159,
            21.1413437
          ],
          [
            79.0820548,
            21.1413155
          ]
        ]
      }
    },
    {
      "type": "Feature",
      "properties": {},
      "geometry": {
        "type": "LineString",
        "coordinates": [
          [
            79.0823046,
            21.1417977
          ],
          [
            79.0820241,
            21.1417359
          ],
          [
            79.0817825,
            21.1416814
          ],
          [
            79.0815215,
            21.1416233
          ],
          [
            79.0811669,
            21.1415615
          ],
          [
            79.0809292,
            21.1415288
          ],
          [
            79.0806253,
            21.1414525
          ],
          [
            79.0805513,
            21.1415361
          ],
          [
            79.0805513,
            21.1415361
          ],
          [
            79.0806604,
            21.1419649
          ],
          [
            79.0807344,
            21.1423501
          ],
          [
            79.0808124,
            21.142688
          ],
          [
            79.0808708,
            21.1429134
          ],
          [
            79.0809098,
            21.143103
          ],
          [
            79.0810036,
            21.1431682
          ],
          [
            79.0810855,
            21.1431887
          ],
          [
            79.0812692,
            21.1432502
          ]
        ]
      }
    },
    {
      "type": "Feature",
      "properties": {},
      "geometry": {
        "type": "LineString",
        "coordinates": [
          [
            79.0808522,
            21.1435508
          ],
          [
            79.0810089,
            21.1434639
          ],
          [
            79.0810659,
            21.1434639
          ],
          [
            79.0812674,
            21.1432547
          ],
          [
            79.0814499,
            21.1430667
          ],
          [
            79.081678,
            21.1428362
          ],
          [
            79.0817845,
            21.1427299
          ],
          [
            79.0817845,
            21.1427299
          ],
          [
            79.081906,
            21.1425775
          ],
          [
            79.08202,
            21.1423612
          ],
          [
            79.0821303,
            21.14223
          ],
          [
            79.0819782,
            21.1421484
          ],
          [
            79.08156,
            21.1421059
          ],
          [
            79.0811684,
            21.1421236
          ],
          [
            79.0810809,
            21.1421697
          ],
          [
            79.081214,
            21.1422974
          ],
          [
            79.0813167,
            21.1424924
          ],
          [
            79.0813129,
            21.1425881
          ]
        ]
      }
    },
    {
      "type": "Feature",
      "properties": {},
      "geometry": {
        "type": "LineString",
        "coordinates": [
          [
            79.0813053,
            21.1425917
          ],
          [
            79.0811266,
            21.1427016
          ],
          [
            79.0808491,
            21.142808
          ],
          [
            79.0808415,
            21.1428009
          ]
        ]
      }
    },
    {
      "type": "Feature",
      "properties": {},
      "geometry": {
        "type": "LineString",
        "coordinates": [
          [
            79.0815715,
            21.142925
          ],
          [
            79.0814422,
            21.1427477
          ],
          [
            79.0813089,
            21.1425876
          ]
        ]
      }
    },
    {
      "type": "Feature",
      "properties": {},
      "geometry": {
        "type": "LineString",
        "coordinates": [
          [
            79.0810834,
            21.1421756
          ],
          [
            79.0810617,
            21.1421869
          ],
          [
            79.0807766,
            21.1419174
          ],
          [
            79.0808222,
            21.1417152
          ],
          [
            79.0808908,
            21.1415344
          ]
        ]
      }
    },
    {
      "type": "Feature",
      "properties": {},
      "geometry": {
        "type": "LineString",
        "coordinates": [
          [
            79.0814155,
            21.1421195
          ],
          [
            79.0815067,
            21.1419706
          ],
          [
            79.0814877,
            21.1417295
          ],
          [
            79.0815371,
            21.1416302
          ]
        ]
      }
    },
    {
      "type": "Feature",
      "properties": {},
      "geometry": {
        "type": "LineString",
        "coordinates": [
          [
            79.080617,
            21.141454
          ],
          [
            79.080522,
            21.1414245
          ],
          [
            79.0804117,
            21.1411243
          ]
        ]
      }
    },
    {
      "type": "Feature",
      "properties": {},
      "geometry": {
        "type": "LineString",
        "coordinates": [
          [
            79.0808607,
            21.1429431
          ],
          [
            79.0809592,
            21.1429111
          ],
          [
            79.0809764,
            21.1428632
          ],
          [
            79.0809764,
            21.1428632
          ],
          [
            79.0809764,
            21.1428632
          ]
        ]
      }
    },
    {
      "type": "Feature",
      "properties": {},
      "geometry": {
        "type": "LineString",
        "coordinates": [
          [
            79.0810278,
            21.1427432
          ],
          [
            79.0810107,
            21.1426633
          ],
          [
            79.0809678,
            21.1426393
          ],
          [
            79.0809678,
            21.1426393
          ],
          [
            79.0809635,
            21.1426433
          ]
        ]
      }
    },
    {
      "type": "Feature",
      "properties": {},
      "geometry": {
        "type": "LineString",
        "coordinates": [
          [
            79.0811136,
            21.1427112
          ],
          [
            79.0811586,
            21.1427533
          ],
          [
            79.0812014,
            21.1427533
          ]
        ]
      }
    },
    {
      "type": "Feature",
      "properties": {},
      "geometry": {
        "type": "LineString",
        "coordinates": [
          [
            79.0807428,
            21.1424495
          ],
          [
            79.0808628,
            21.1424295
          ],
          [
            79.0808799,
            21.1424015
          ]
        ]
      }
    },
    {
      "type": "Feature",
      "properties": {},
      "geometry": {
        "type": "LineString",
        "coordinates": [
          [
            79.0806185,
            21.1418658
          ],
          [
            79.0807085,
            21.1418578
          ],
          [
            79.0807342,
            21.1418298
          ]
        ]
      }
    },
    {
      "type": "Feature",
      "properties": {},
      "geometry": {
        "type": "LineString",
        "coordinates": [
          [
            79.0816985,
            21.1428013
          ],
          [
            79.0816556,
            21.1427733
          ],
          [
            79.0816642,
            21.1427213
          ]
        ]
      }
    },
    {
      "type": "Feature",
      "properties": {},
      "geometry": {
        "type": "LineString",
        "coordinates": [
          [
            79.0819043,
            21.1425414
          ],
          [
            79.0818185,
            21.1425014
          ],
          [
            79.0817457,
            21.1425734
          ],
          [
            79.0815742,
            21.1424854
          ],
          [
            79.0813084,
            21.1424814
          ]
        ]
      }
    },
    {
      "type": "Feature",
      "properties": {},
      "geometry": {
        "type": "LineString",
        "coordinates": [
          [
            79.0814928,
            21.1425014
          ],
          [
            79.0815056,
            21.1425614
          ],
          [
            79.0815442,
            21.1425734
          ],
          [
            79.0815442,
            21.1425734
          ]
        ]
      }
    },
    {
      "type": "Feature",
      "properties": {},
      "geometry": {
        "type": "LineString",
        "coordinates": [
          [
            79.0817885,
            21.1425254
          ],
          [
            79.0817414,
            21.1424814
          ],
          [
            79.0817371,
            21.1424495
          ]
        ]
      }
    },
    {
      "type": "Feature",
      "properties": {},
      "geometry": {
        "type": "LineString",
        "coordinates": [
          [
            79.0819343,
            21.1424854
          ],
          [
            79.0818785,
            21.1424534
          ],
          [
            79.08187,
            21.1424175
          ]
        ]
      }
    },
    {
      "type": "Feature",
      "properties": {},
      "geometry": {
        "type": "LineString",
        "coordinates": [
          [
            79.0820243,
            21.1423455
          ],
          [
            79.0819686,
            21.1423095
          ],
          [
            79.0819214,
            21.1423175
          ]
        ]
      }
    },
    {
      "type": "Feature",
      "properties": {},
      "geometry": {
        "type": "LineString",
        "coordinates": [
          [
            79.0817285,
            21.1421416
          ],
          [
            79.0817242,
            21.1422136
          ],
          [
            79.0817414,
            21.1422336
          ]
        ]
      }
    },
    {
      "type": "Feature",
      "properties": {},
      "geometry": {
        "type": "LineString",
        "coordinates": [
          [
            79.0815099,
            21.1421216
          ],
          [
            79.0815056,
            21.1421896
          ],
          [
            79.0814756,
            21.1422136
          ]
        ]
      }
    },
    {
      "type": "Feature",
      "properties": {},
      "geometry": {
        "type": "LineString",
        "coordinates": [
          [
            79.0813985,
            21.1421256
          ],
          [
            79.0813942,
            21.1421976
          ],
          [
            79.081377,
            21.1422176
          ]
        ]
      }
    },
    {
      "type": "Feature",
      "properties": {},
      "geometry": {
        "type": "LineString",
        "coordinates": [
          [
            79.0814799,
            21.1420097
          ],
          [
            79.0814156,
            21.1419977
          ],
          [
            79.0813985,
            21.1419617
          ],
          [
            79.0813985,
            21.1419617
          ],
          [
            79.0813856,
            21.1419457
          ]
        ]
      }
    },
    {
      "type": "Feature",
      "properties": {},
      "geometry": {
        "type": "LineString",
        "coordinates": [
          [
            79.081287,
            21.1421256
          ],
          [
            79.0812742,
            21.1420497
          ],
          [
            79.0812484,
            21.1420497
          ],
          [
            79.0812356,
            21.1420417
          ]
        ]
      }
    },
    {
      "type": "Feature",
      "properties": {},
      "geometry": {
        "type": "LineString",
        "coordinates": [
          [
            79.0821957,
            21.1420497
          ],
          [
            79.0821443,
            21.1420377
          ],
          [
            79.0821272,
            21.1420017
          ],
          [
            79.0821272,
            21.1420017
          ],
          [
            79.0821272,
            21.1420017
          ]
        ]
      }
    },
    {
      "type": "Feature",
      "properties": {},
      "geometry": {
        "type": "LineString",
        "coordinates": [
          [
            79.0818785,
            21.1417018
          ],
          [
            79.0818657,
            21.1417378
          ],
          [
            79.0818271,
            21.1417418
          ],
          [
            79.0818271,
            21.1417378
          ]
        ]
      }
    },
    {
      "type": "Feature",
      "properties": {},
      "geometry": {
        "type": "LineString",
        "coordinates": [
          [
            79.0816556,
            21.1417458
          ],
          [
            79.0816942,
            21.1417458
          ],
          [
            79.0817071,
            21.1416858
          ],
          [
            79.0817071,
            21.1416858
          ]
        ]
      }
    },
    {
      "type": "Feature",
      "properties": {},
      "geometry": {
        "type": "LineString",
        "coordinates": [
          [
            79.0814842,
            21.1418857
          ],
          [
            79.0815571,
            21.1418897
          ],
          [
            79.0815742,
            21.1418658
          ],
          [
            79.0815742,
            21.1418658
          ]
        ]
      }
    },
    {
      "type": "Feature",
      "properties": {},
      "geometry": {
        "type": "LineString",
        "coordinates": [
          [
            79.0814156,
            21.1416898
          ],
          [
            79.0814585,
            21.1416699
          ],
          [
            79.0814756,
            21.1416219
          ]
        ]
      }
    },
    {
      "type": "Feature",
      "properties": {},
      "geometry": {
        "type": "LineString",
        "coordinates": [
          [
            79.0815613,
            21.1416419
          ],
          [
            79.0815742,
            21.1415379
          ],
          [
            79.0815399,
            21.1415019
          ]
        ]
      }
    },
    {
      "type": "Feature",
      "properties": {},
      "geometry": {
        "type": "LineString",
        "coordinates": [
          [
            79.0816428,
            21.1416739
          ],
          [
            79.0816814,
            21.1415539
          ],
          [
            79.0817499,
            21.1415179
          ]
        ]
      }
    },
    {
      "type": "Feature",
      "properties": {},
      "geometry": {
        "type": "LineString",
        "coordinates": [
          [
            79.0812056,
            21.1416739
          ],
          [
            79.0812527,
            21.1416739
          ],
          [
            79.081287,
            21.1415899
          ]
        ]
      }
    },
    {
      "type": "Feature",
      "properties": {},
      "geometry": {
        "type": "LineString",
        "coordinates": [
          [
            79.0806569,
            21.1415619
          ],
          [
            79.0806183,
            21.1415659
          ],
          [
            79.0805583,
            21.1415339
          ]
        ]
      }
    },
    {
      "type": "Feature",
      "properties": {},
      "geometry": {
        "type": "LineString",
        "coordinates": [
          [
            79.0807941,
            21.1418458
          ],
          [
            79.0808712,
            21.1418418
          ],
          [
            79.0809012,
            21.1418098
          ]
        ]
      }
    },
    {
      "type": "Feature",
      "properties": {},
      "geometry": {
        "type": "LineString",
        "coordinates": [
          [
            79.0810191,
            21.1421536
          ],
          [
            79.0810041,
            21.1421496
          ],
          [
            79.0809184,
            21.1421496
          ],
          [
            79.0808969,
            21.1421256
          ]
        ]
      }
    },
    {
      "type": "Feature",
      "properties": {},
      "geometry": {
        "type": "LineString",
        "coordinates": [
          [
            79.081152,
            21.1426847
          ],
          [
            79.0811027,
            21.1425647
          ],
          [
            79.0811156,
            21.1425328
          ]
        ]
      }
    },
    {
      "type": "Feature",
      "properties": {},
      "geometry": {
        "type": "LineString",
        "coordinates": [
          [
            79.0812591,
            21.1424028
          ],
          [
            79.0813234,
            21.1423768
          ],
          [
            79.0813256,
            21.1423525
          ]
        ]
      }
    },
    {
      "type": "Feature",
      "properties": {},
      "geometry": {
        "type": "LineString",
        "coordinates": [
          [
            79.0813084,
            21.1424884
          ],
          [
            79.0813663,
            21.1424165
          ],
          [
            79.0813985,
            21.1424065
          ]
        ]
      }
    },
    {
      "type": "Feature",
      "properties": {},
      "geometry": {
        "type": "LineString",
        "coordinates": [
          [
            79.0801906,
            21.1424907
          ],
          [
            79.0801842,
            21.1424907
          ]
        ]
      }
    },
    {
      "type": "Feature",
      "properties": {},
      "geometry": {
        "type": "LineString",
        "coordinates": [
          [
            79.0808895,
            21.1420368
          ],
          [
            79.0809709,
            21.1419769
          ],
          [
            79.0809666,
            21.1419469
          ],
          [
            79.0809666,
            21.1419469
          ]
        ]
      }
    },
    {
      "type": "Feature",
      "properties": {},
      "geometry": {
        "type": "LineString",
        "coordinates": [
          [
            79.0809666,
            21.141643
          ],
          [
            79.0810224,
            21.141629
          ],
          [
            79.0810717,
            21.1415551
          ]
        ]
      }
    },
    {
      "type": "Feature",
      "properties": {},
      "geometry": {
        "type": "LineString",
        "coordinates": [
          [
            79.081076,
            21.141749
          ],
          [
            79.0810481,
            21.141717
          ],
          [
            79.081151,
            21.1415651
          ]
        ]
      }
    },
    {
      "type": "Feature",
      "properties": {},
      "geometry": {
        "type": "LineString",
        "coordinates": [
          [
            79.0812281,
            21.141813
          ],
          [
            79.0812238,
            21.141767
          ],
          [
            79.0813781,
            21.1416031
          ]
        ]
      }
    },
    {
      "type": "Feature",
      "properties": {},
      "geometry": {
        "type": "LineString",
        "coordinates": [
          [
            79.0813567,
            21.1418469
          ],
          [
            79.0813739,
            21.1418189
          ],
          [
            79.0814874,
            21.141779
          ]
        ]
      }
    },
    {
      "type": "Feature",
      "properties": {},
      "geometry": {
        "type": "LineString",
        "coordinates": [
          [
            79.0815732,
            21.1423447
          ],
          [
            79.0816289,
            21.1423227
          ],
          [
            79.0816353,
            21.1421168
          ]
        ]
      }
    },
    {
      "type": "Feature",
      "properties": {},
      "geometry": {
        "type": "LineString",
        "coordinates": [
          [
            79.0808366,
            21.1437984
          ],
          [
            79.0805966,
            21.1436379
          ],
          [
            79.0800646,
            21.1436816
          ],
          [
            79.0796942,
            21.1437984
          ],
          [
            79.0791987,
            21.1438714
          ],
          [
            79.0789066,
            21.1439589
          ],
          [
            79.0785206,
            21.144066
          ],
          [
            79.0776338,
            21.1442849
          ],
          [
            79.0775451,
            21.1442703
          ],
          [
            79.0775556,
            21.1442655
          ]
        ]
      }
    },
    {
      "type": "Feature",
      "properties": {},
      "geometry": {
        "type": "LineString",
        "coordinates": [
          [
            79.0807689,
            21.1435955
          ],
          [
            79.0804988,
            21.1435653
          ],
          [
            79.0799928,
            21.1436626
          ],
          [
            79.0796224,
            21.1437453
          ],
          [
            79.0793355,
            21.1437842
          ],
          [
            79.0789182,
            21.143901
          ],
          [
            79.0785166,
            21.1439983
          ],
          [
            79.0781775,
            21.1440907
          ],
          [
            79.0778802,
            21.1441491
          ],
          [
            79.077682,
            21.1442221
          ]
        ]
      }
    },
    {
      "type": "Feature",
      "properties": {},
      "geometry": {
        "type": "LineString",
        "coordinates": [
          [
            79.08077,
            21.1435991
          ],
          [
            79.0807335,
            21.1434775
          ],
          [
            79.0803371,
            21.1435164
          ],
          [
            79.0794816,
            21.1436867
          ],
          [
            79.0787409,
            21.1438618
          ],
          [
            79.0783184,
            21.143999
          ]
        ]
      }
    },
    {
      "type": "Feature",
      "properties": {},
      "geometry": {
        "type": "LineString",
        "coordinates": [
          [
            79.0783079,
            21.1440039
          ],
          [
            79.078214,
            21.1436731
          ],
          [
            79.0781254,
            21.1431525
          ],
          [
            79.0780263,
            21.1425103
          ],
          [
            79.0779428,
            21.1420725
          ],
          [
            79.0779428,
            21.1420725
          ],
          [
            79.0779376,
            21.1420725
          ]
        ]
      }
    },
    {
      "type": "Feature",
      "properties": {},
      "geometry": {
        "type": "LineString",
        "coordinates": [
          [
            79.0803775,
            21.1435256
          ],
          [
            79.0803567,
            21.1434285
          ],
          [
            79.0803983,
            21.1433935
          ]
        ]
      }
    },
    {
      "type": "Feature",
      "properties": {},
      "geometry": {
        "type": "LineString",
        "coordinates": [
          [
            79.0799986,
            21.1435955
          ],
          [
            79.0799778,
            21.1435139
          ],
          [
            79.0800069,
            21.1434712
          ]
        ]
      }
    },
    {
      "type": "Feature",
      "properties": {},
      "geometry": {
        "type": "LineString",
        "coordinates": [
          [
            79.0790992,
            21.143778
          ],
          [
            79.0790701,
            21.1437236
          ],
          [
            79.0790909,
            21.1436576
          ],
          [
            79.0790951,
            21.1436576
          ]
        ]
      }
    },
    {
      "type": "Feature",
      "properties": {},
      "geometry": {
        "type": "LineString",
        "coordinates": [
          [
            79.0781832,
            21.1436149
          ],
          [
            79.0783206,
            21.1435916
          ],
          [
            79.0783622,
            21.1436071
          ]
        ]
      }
    },
    {
      "type": "Feature",
      "properties": {},
      "geometry": {
        "type": "LineString",
        "coordinates": [
          [
            79.0780999,
            21.1430013
          ],
          [
            79.0782123,
            21.1429857
          ],
          [
            79.0782831,
            21.1430168
          ]
        ]
      }
    },
    {
      "type": "Feature",
      "properties": {},
      "geometry": {
        "type": "LineString",
        "coordinates": [
          [
            79.0802167,
            21.1436786
          ],
          [
            79.0802071,
            21.1437279
          ],
          [
            79.0802239,
            21.143748
          ]
        ]
      }
    },
    {
      "type": "Feature",
      "properties": {},
      "geometry": {
        "type": "LineString",
        "coordinates": [
          [
            79.0798299,
            21.1437637
          ],
          [
            79.0798347,
            21.1438175
          ],
          [
            79.079866,
            21.1438309
          ]
        ]
      }
    },
    {
      "type": "Feature",
      "properties": {},
      "geometry": {
        "type": "LineString",
        "coordinates": [
          [
            79.0807255,
            21.1430697
          ],
          [
            79.0805318,
            21.1430897
          ],
          [
            79.0804923,
            21.1430596
          ]
        ]
      }
    },
    {
      "type": "Feature",
      "properties": {},
      "geometry": {
        "type": "LineString",
        "coordinates": [
          [
            79.0805103,
            21.1423102
          ],
          [
            79.0804493,
            21.1423269
          ],
          [
            79.0804313,
            21.1423035
          ]
        ]
      }
    },
    {
      "type": "Feature",
      "properties": {},
      "geometry": {
        "type": "LineString",
        "coordinates": [
          [
            79.0796134,
            21.1438191
          ],
          [
            79.0796134,
            21.1439262
          ],
          [
            79.0795776,
            21.1439563
          ]
        ]
      }
    },
    {
      "type": "Feature",
      "properties": {},
      "geometry": {
        "type": "LineString",
        "coordinates": [
          [
            79.0791148,
            21.1439964
          ],
          [
            79.0791614,
            21.1439697
          ],
          [
            79.079183,
            21.1438894
          ]
        ]
      }
    },
    {
      "type": "Feature",
      "properties": {},
      "geometry": {
        "type": "LineString",
        "coordinates": [
          [
            79.0800618,
            21.1438091
          ],
          [
            79.0800941,
            21.143779
          ],
          [
            79.0800618,
            21.1436853
          ]
        ]
      }
    },
    {
      "type": "Feature",
      "properties": {},
      "geometry": {
        "type": "LineString",
        "coordinates": [
          [
            79.0804313,
            21.143886
          ],
          [
            79.0804206,
            21.1438325
          ],
          [
            79.0806071,
            21.1436418
          ]
        ]
      }
    },
    {
      "type": "Feature",
      "properties": {},
      "geometry": {
        "type": "LineString",
        "coordinates": [
          [
            79.0810498,
            21.1436893
          ],
          [
            79.0810639,
            21.143653
          ],
          [
            79.0811522,
            21.1435904
          ]
        ]
      }
    },
    {
      "type": "Feature",
      "properties": {},
      "geometry": {
        "type": "LineString",
        "coordinates": [
          [
            79.0812503,
            21.143261
          ],
          [
            79.0812465,
            21.1432002
          ],
          [
            79.0813002,
            21.1431215
          ]
        ]
      }
    },
    {
      "type": "Feature",
      "properties": {},
      "geometry": {
        "type": "LineString",
        "coordinates": [
          [
            79.0815149,
            21.1429999
          ],
          [
            79.0814651,
            21.1429606
          ],
          [
            79.0814651,
            21.1429177
          ]
        ]
      }
    },
    {
      "type": "Feature",
      "properties": {},
      "geometry": {
        "type": "LineString",
        "coordinates": [
          [
            79.0818408,
            21.1419379
          ],
          [
            79.0819328,
            21.1419379
          ],
          [
            79.0820517,
            21.1417626
          ]
        ]
      }
    },
    {
      "type": "Feature",
      "properties": {},
      "geometry": {
        "type": "LineString",
        "coordinates": [
          [
            79.0816199,
            21.1444244
          ],
          [
            79.0815929,
            21.1443089
          ]
        ]
      }
    }
  ]
}