{
  "type": "FeatureCollection",
  "features": [
    {
      "type": "Feature",
      "geometry": {
        "type": "LineString",
        "coordinates": [
          [
            79.0808594,
            21.1435131
          ],
          [
            79.0807303,
            21.1434753
          ],
          [
            79.0797527,
            21.1436507
          ],
          [
            79.0793755,
            21.1437397
          ],
          [
            79.0790247,
            21.1437832
          ],
          [
            79.0786495,
            21.1438706
          ],
          [
            79.0782954,
            21.1439948
          ],
          [
            79.0782524,
            21.1437672
          ],
          [
            79.0781987,
            21.143607
          ],
          [
            79.0781416,
            21.1432305
          ],
          [
            79.0780308,
            21.1427688
          ],
          [
            79.0779708,
            21.1423329
          ],
          [
            79.0779671,
            21.1423329
          ]
        ]
      },
      "properties": {}
    },
    {
      "type": "Feature",
      "geometry": {
        "type": "LineString",
        "coordinates": [
          [
            79.0808402,
            21.1435082
          ],
          [
            79.0808402,
            21.1435048
          ],
          [
            79.0807614,
            21.1433285
          ],
          [
            79.0807648,
            21.1432529
          ],
          [
            79.0807234,
            21.1430965
          ],
          [
            79.0806216,
            21.1430188
          ],
          [
            79.0806235,
            21.1427635
          ],
          [
            79.0805916,
            21.1424518
          ],
          [
            79.0803053,
            21.1414196
          ],
          [
            79.0803053,
            21.1414196
          ]
        ]
      },
      "properties": {}
    },
    {
      "type": "Feature",
      "geometry": {
        "type": "LineString",
        "coordinates": [
          [
            79.0808527,
            21.1435147
          ],
          [
            79.0808254,
            21.1435701
          ],
          [
            79.0801805,
            21.1436447
          ],
          [
            79.0795651,
            21.1437631
          ],
          [
            79.0792435,
            21.143871
          ],
          [
            79.078918,
            21.1438844
          ],
          [
            79.0782615,
            21.1440553
          ],
          [
            79.0782725,
            21.1440484
          ]
        ]
      },
      "properties": {}
    },
    {
      "type": "Feature",
      "geometry": {
        "type": "LineString",
        "coordinates": [
          [
            79.0805045,
            21.1435185
          ],
          [
            79.0805819,
            21.1434359
          ],
          [
            79.0807,
            21.1432329
          ],
          [
            79.0807221,
            21.1430953
          ],
          [
            79.0804897,
            21.1431091
          ],
          [
            79.0804897,
            21.1431091
          ]
        ]
      },
      "properties": {}
    },
    {
      "type": "Feature",
      "geometry": {
        "type": "LineString",
        "coordinates": [
          [
            79.0806299,
            21.142765
          ],
          [
            79.0801798,
            21.142796
          ],
          [
            79.080041,
            21.1429615
          ],
          [
            79.0798847,
            21.1428751
          ],
          [
            79.0798367,
            21.1429474
          ],
          [
            79.0797666,
            21.143054
          ],
          [
            79.0795785,
            21.1430953
          ],
          [
            79.0793018,
            21.1431194
          ],
          [
            79.0785888,
            21.1430172
          ],
          [
            79.0783986,
            21.1428575
          ],
          [
            79.0780512,
            21.1427719
          ],
          [
            79.0780512,
            21.1427684
          ],
          [
            79.0780475,
            21.1427615
          ]
        ]
      },
      "properties": {}
    },
    {
      "type": "Feature",
      "geometry": {
        "type": "LineString",
        "coordinates": [
          [
            79.0804238,
            21.1419392
          ],
          [
            79.0796675,
            21.1426033
          ],
          [
            79.0796595,
            21.1426007
          ],
          [
            79.0796595,
            21.1426007
          ]
        ]
      },
      "properties": {}
    },
    {
      "type": "Feature",
      "geometry": {
        "type": "LineString",
        "coordinates": [
          [
            79.0798508,
            21.1436394
          ],
          [
            79.0798931,
            21.1435515
          ],
          [
            79.07983,
            21.1433634
          ],
          [
            79.0799956,
            21.1433729
          ],
          [
            79.0799956,
            21.1433729
          ]
        ]
      },
      "properties": {}
    },
    {
      "type": "Feature",
      "geometry": {
        "type": "LineString",
        "coordinates": [
          [
            79.0808567,
            21.1435122
          ],
          [
            79.0808954,
            21.143503
          ],
          [
            79.0808962,
            21.1435028
          ],
          [
            79.080919,
            21.1435044
          ],
          [
            79.0810356,
            21.1434866
          ],
          [
            79.0814864,
            21.1430729
          ],
          [
            79.0817797,
            21.1427592
          ],
          [
            79.0819157,
            21.1425457
          ],
          [
            79.0821089,
            21.1422387
          ],
          [
            79.0823378,
            21.1417515
          ],
          [
            79.0824952,
            21.1414446
          ],
          [
            79.0824952,
            21.1414446
          ]
        ]
      },
      "properties": {}
    },
    {
      "type": "Feature",
      "geometry": {
        "type": "LineString",
        "coordinates": [
          [
            79.0808562,
            21.1434996
          ],
          [
            79.0808997,
            21.1431263
          ],
          [
            79.0808925,
            21.1431263
          ],
          [
            79.0808925,
            21.1431263
          ],
          [
            79.0808117,
            21.1428137
          ],
          [
            79.0807494,
            21.1425057
          ],
          [
            79.0805991,
            21.1419518
          ],
          [
            79.0804417,
            21.1413111
          ],
          [
            79.0804417,
            21.1413111
          ]
        ]
      },
      "properties": {}
    },
    {
      "type": "Feature",
      "geometry": {
        "type": "LineString",
        "coordinates": [
          [
            79.0821017,
            21.142212
          ],
          [
            79.0817654,
            21.1421453
          ],
          [
            79.0812646,
            21.1420986
          ],
          [
            79.0809927,
            21.1421987
          ],
          [
            79.0814291,
            21.1424523
          ],
          [
            79.0813218,
            21.1426058
          ],
          [
            79.0813218,
            21.1426058
          ]
        ]
      },
      "properties": {}
    },
    {
      "type": "Feature",
      "geometry": {
        "type": "LineString",
        "coordinates": [
          [
            79.0822877,
            21.1418049
          ],
          [
            79.0818012,
            21.1416781
          ],
          [
            79.081515,
            21.1416514
          ],
          [
            79.0811644,
            21.1415513
          ],
          [
            79.0809426,
            21.1415046
          ],
          [
            79.0807279,
            21.1413244
          ],
          [
            79.0802342,
            21.1412644
          ],
          [
            79.0802342,
            21.1412644
          ]
        ]
      },
      "properties": {}
    },
    {
      "type": "Feature",
      "geometry": {
        "type": "LineString",
        "coordinates": [
          [
            79.0808281,
            21.1428727
          ],
          [
            79.0810642,
            21.1426858
          ],
          [
            79.0808853,
            21.1423989
          ],
          [
            79.0807923,
            21.142152
          ],
          [
            79.080821,
            21.1419251
          ],
          [
            79.080821,
            21.1419251
          ]
        ]
      },
      "properties": {}
    },
    {
      "type": "Feature",
      "geometry": {
        "type": "LineString",
        "coordinates": [
          [
            79.0810314,
            21.1434872
          ],
          [
            79.0810349,
            21.1434905
          ],
          [
            79.0814863,
            21.1436795
          ],
          [
            79.0820184,
            21.1438391
          ],
          [
            79.0830605,
            21.1440806
          ],
          [
            79.0830605,
            21.1440806
          ]
        ]
      },
      "properties": {}
    },
    {
      "type": "Feature",
      "geometry": {
        "type": "LineString",
        "coordinates": [
          [
            79.0807566,
            21.1433332
          ],
          [
            79.0809855,
            21.1433131
          ],
          [
            79.0809712,
            21.1431597
          ],
          [
            79.0812984,
            21.1432459
          ]
        ]
      },
      "properties": {}
    },
    {
      "type": "Feature",
      "geometry": {
        "type": "LineString",
        "coordinates": [
          [
            79.0808597,
            21.1435148
          ],
          [
            79.0810714,
            21.1440005
          ],
          [
            79.0810857,
            21.1443408
          ],
          [
            79.0811501,
            21.1445744
          ]
        ]
      },
      "properties": {}
    },
    {
      "type": "Feature",
      "geometry": {
        "type": "LineString",
        "coordinates": [
          [
            79.0808579,
            21.1435067
          ],
          [
            79.0807706,
            21.1441269
          ],
          [
            79.0807205,
            21.1443738
          ],
          [
            79.0807205,
            21.1447542
          ]
        ]
      },
      "properties": {}
    },
    {
      "type": "Feature",
      "geometry": {
        "type": "LineString",
        "coordinates": [
          [
            79.0815862,
            21.142939
          ],
          [
            79.0814718,
            21.1427722
          ],
          [
            79.0813143,
            21.1426187
          ],
          [
            79.0811426,
            21.142652
          ],
          [
            79.0810639,
            21.1426787
          ]
        ]
      },
      "properties": {}
    },
    {
      "type": "Feature",
      "geometry": {
        "type": "LineString",
        "coordinates": [
          [
            79.081393,
            21.1424852
          ],
          [
            79.0815362,
            21.1425052
          ],
          [
            79.0817508,
            21.1425519
          ],
          [
            79.081808,
            21.1424919
          ],
          [
            79.0819154,
            21.1425252
          ]
        ]
      },
      "properties": {}
    },
    {
      "type": "Feature",
      "geometry": {
        "type": "LineString",
        "coordinates": [
          [
            79.0814145,
            21.1421248
          ],
          [
            79.0815147,
            21.1419647
          ],
          [
            79.0814789,
            21.1417912
          ],
          [
            79.0815505,
            21.1416577
          ]
        ]
      },
      "properties": {}
    },
    {
      "type": "Feature",
      "geometry": {
        "type": "LineString",
        "coordinates": [
          [
            79.080792,
            21.1419446
          ],
          [
            79.0808779,
            21.1417111
          ],
          [
            79.0810925,
            21.1417044
          ],
          [
            79.0811212,
            21.1415509
          ]
        ]
      },
      "properties": {}
    },
    {
      "type": "Feature",
      "geometry": {
        "type": "LineString",
        "coordinates": [
          [
            79.0809852,
            21.1421982
          ],
          [
            79.0809423,
            21.1419914
          ],
          [
            79.0807992,
            21.1419446
          ]
        ]
      },
      "properties": {}
    },
    {
      "type": "Feature",
      "geometry": {
        "type": "LineString",
        "coordinates": [
          [
            79.0818367,
            21.1421649
          ],
          [
            79.0819225,
            21.1419113
          ],
          [
            79.082266,
            21.1418712
          ],
          [
            79.082266,
            21.1418979
          ]
        ]
      },
      "properties": {}
    },
    {
      "type": "Feature",
      "geometry": {
        "type": "LineString",
        "coordinates": [
          [
            79.0807823,
            21.1422933
          ],
          [
            79.0806632,
            21.1421715
          ],
          [
            79.0806632,
            21.1421715
          ]
        ]
      },
      "properties": {}
    },
    {
      "type": "Feature",
      "geometry": {
        "type": "LineString",
        "coordinates": [
          [
            79.0805774,
            21.141591
          ],
          [
            79.0805917,
            21.1414441
          ],
          [
            79.0807062,
            21.1413307
          ]
        ]
      },
      "properties": {}
    },
    {
      "type": "Feature",
      "geometry": {
        "type": "LineString",
        "coordinates": [
          [
            79.0810639,
            21.1426921
          ],
          [
            79.0811052,
            21.1428014
          ],
          [
            79.0811426,
            21.1427588
          ],
          [
            79.0812224,
            21.1427699
          ]
        ]
      },
      "properties": {}
    },
    {
      "type": "Feature",
      "geometry": {
        "type": "LineString",
        "coordinates": [
          [
            79.0811569,
            21.1417845
          ],
          [
            79.0812786,
            21.1417378
          ],
          [
            79.0812929,
            21.1416043
          ]
        ]
      },
      "properties": {}
    },
    {
      "type": "Feature",
      "geometry": {
        "type": "LineString",
        "coordinates": [
          [
            79.0803627,
            21.1418312
          ],
          [
            79.0800407,
            21.1419513
          ],
          [
            79.079869,
            21.1417978
          ],
          [
            79.0793968,
            21.1418179
          ],
          [
            79.0791034,
            21.1423117
          ],
          [
            79.0784666,
            21.1423584
          ],
          [
            79.0780158,
            21.1425453
          ],
          [
            79.0780158,
            21.1425453
          ]
        ]
      },
      "properties": {}
    },
    {
      "type": "Feature",
      "geometry": {
        "type": "LineString",
        "coordinates": [
          [
            79.0790963,
            21.142305
          ],
          [
            79.0793181,
            21.1424785
          ],
          [
            79.0795256,
            21.1424118
          ],
          [
            79.0797044,
            21.1421916
          ],
          [
            79.0798833,
            21.1419647
          ],
          [
            79.0798833,
            21.1419647
          ]
        ]
      },
      "properties": {}
    },
    {
      "type": "Feature",
      "geometry": {
        "type": "LineString",
        "coordinates": [
          [
            79.0789389,
            21.1430324
          ],
          [
            79.0789675,
            21.1428856
          ],
          [
            79.0791463,
            21.1428322
          ],
          [
            79.0792751,
            21.1426354
          ],
          [
            79.0795113,
            21.1425353
          ],
          [
            79.0795971,
            21.1426821
          ],
          [
            79.0796692,
            21.1426118
          ]
        ]
      },
      "properties": {}
    },
    {
      "type": "Feature",
      "properties": {},
      "geometry": {
        "type": "LineString",
        "coordinates": [
          [
            79.081018,
            21.1424306
          ],
          [
            79.0809112,
            21.1424555
          ],
          [
            79.0809059,
            21.1424605
          ],
          [
            79.0809059,
            21.1424605
          ],
          [
            79.0809059,
            21.1424555
          ]
        ]
      }
    },
    {
      "type": "Feature",
      "properties": {},
      "geometry": {
        "type": "LineString",
        "coordinates": [
          [
            79.0809646,
            21.1429632
          ],
          [
            79.0810179,
            21.1428637
          ],
          [
            79.0809166,
            21.1428089
          ]
        ]
      }
    },
    {
      "type": "Feature",
      "properties": {},
      "geometry": {
        "type": "LineString",
        "coordinates": [
          [
            79.0808658,
            21.1427143
          ],
          [
            79.0807884,
            21.1426671
          ],
          [
            79.0808551,
            21.1426148
          ],
          [
            79.0808551,
            21.1426148
          ],
          [
            79.0808551,
            21.1426148
          ]
        ]
      }
    },
    {
      "type": "Feature",
      "properties": {},
      "geometry": {
        "type": "LineString",
        "coordinates": [
          [
            79.0807823,
            21.1422915
          ],
          [
            79.0808044,
            21.1421867
          ],
          [
            79.0808551,
            21.1421295
          ]
        ]
      }
    },
    {
      "type": "Feature",
      "properties": {},
      "geometry": {
        "type": "LineString",
        "coordinates": [
          [
            79.0811808,
            21.1425826
          ],
          [
            79.0810287,
            21.14262
          ],
          [
            79.0811514,
            21.1424856
          ]
        ]
      }
    },
    {
      "type": "Feature",
      "properties": {},
      "geometry": {
        "type": "LineString",
        "coordinates": [
          [
            79.0795909,
            21.1430163
          ],
          [
            79.0793599,
            21.14277
          ],
          [
            79.079789,
            21.1428562
          ],
          [
            79.0796702,
            21.1426161
          ],
          [
            79.0796702,
            21.1426161
          ]
        ]
      }
    },
    {
      "type": "Feature",
      "properties": {},
      "geometry": {
        "type": "LineString",
        "coordinates": [
          [
            79.0804379,
            21.1429566
          ],
          [
            79.0805005,
            21.1428733
          ],
          [
            79.0805363,
            21.142929
          ],
          [
            79.0805041,
            21.14282
          ],
          [
            79.0806225,
            21.1427658
          ]
        ]
      }
    },
    {
      "type": "Feature",
      "properties": {},
      "geometry": {
        "type": "LineString",
        "coordinates": [
          [
            79.0796039,
            21.1432486
          ],
          [
            79.0796386,
            21.1430888
          ],
          [
            79.0797773,
            21.1432307
          ],
          [
            79.0798177,
            21.143166
          ],
          [
            79.0798004,
            21.1430098
          ]
        ]
      }
    },
    {
      "type": "Feature",
      "properties": {},
      "geometry": {
        "type": "LineString",
        "coordinates": [
          [
            79.0804834,
            21.1436184
          ],
          [
            79.0804915,
            21.1438686
          ],
          [
            79.080333,
            21.1437567
          ],
          [
            79.0802639,
            21.1436373
          ],
          [
            79.0801257,
            21.1438022
          ],
          [
            79.0800551,
            21.1438418
          ],
          [
            79.0800749,
            21.1440164
          ],
          [
            79.079888,
            21.1439216
          ],
          [
            79.0798941,
            21.1438439
          ],
          [
            79.0798799,
            21.1437094
          ],
          [
            79.0798799,
            21.1437094
          ]
        ]
      }
    },
    {
      "type": "Feature",
      "properties": {},
      "geometry": {
        "type": "LineString",
        "coordinates": [
          [
            79.0797864,
            21.1439216
          ],
          [
            79.0797661,
            21.1439263
          ],
          [
            79.0796401,
            21.1439946
          ],
          [
            79.0795121,
            21.1439339
          ],
          [
            79.0796421,
            21.14375
          ],
          [
            79.0796421,
            21.1437444
          ],
          [
            79.079638,
            21.1437463
          ]
        ]
      }
    },
    {
      "type": "Feature",
      "properties": {},
      "geometry": {
        "type": "LineString",
        "coordinates": [
          [
            79.0814516,
            21.1423712
          ],
          [
            79.0814295,
            21.1423665
          ],
          [
            79.081395,
            21.1423838
          ],
          [
            79.0813243,
            21.1423932
          ],
          [
            79.081301,
            21.1423414
          ]
        ]
      }
    },
    {
      "type": "Feature",
      "properties": {},
      "geometry": {
        "type": "LineString",
        "coordinates": [
          [
            79.0814253,
            21.1423685
          ],
          [
            79.0814253,
            21.1423685
          ],
          [
            79.0814385,
            21.1423267
          ],
          [
            79.0814398,
            21.1423267
          ],
          [
            79.0814398,
            21.1423267
          ],
          [
            79.0814398,
            21.1423267
          ]
        ]
      }
    },
    {
      "type": "Feature",
      "properties": {},
      "geometry": {
        "type": "LineString",
        "coordinates": [
          [
            79.0813837,
            21.1423866
          ],
          [
            79.0813711,
            21.1423607
          ]
        ]
      }
    },
    {
      "type": "Feature",
      "properties": {},
      "geometry": {
        "type": "LineString",
        "coordinates": [
          [
            79.0810498,
            21.1430734
          ],
          [
            79.0809711,
            21.1431606
          ],
          [
            79.0808988,
            21.1431269
          ]
        ]
      }
    },
    {
      "type": "Feature",
      "properties": {},
      "geometry": {
        "type": "LineString",
        "coordinates": [
          [
            79.0804216,
            21.1422841
          ],
          [
            79.0805459,
            21.1422727
          ]
        ]
      }
    },
    {
      "type": "Feature",
      "properties": {},
      "geometry": {
        "type": "LineString",
        "coordinates": [
          [
            79.080661,
            21.1417888
          ],
          [
            79.0805557,
            21.1417554
          ],
          [
            79.0806351,
            21.1416831
          ]
        ]
      }
    },
    {
      "type": "Feature",
      "properties": {},
      "geometry": {
        "type": "LineString",
        "coordinates": [
          [
            79.0801773,
            21.14337
          ],
          [
            79.0802509,
            21.1434043
          ],
          [
            79.0802018,
            21.1435679
          ],
          [
            79.0802018,
            21.1435679
          ]
        ]
      }
    },
    {
      "type": "Feature",
      "properties": {},
      "geometry": {
        "type": "LineString",
        "coordinates": [
          [
            79.0797671,
            21.1425099
          ],
          [
            79.0797194,
            21.142393
          ],
          [
            79.0798077,
            21.1423239
          ],
          [
            79.0800088,
            21.1423058
          ],
          [
            79.0800088,
            21.1423058
          ]
        ]
      }
    },
    {
      "type": "Feature",
      "properties": {},
      "geometry": {
        "type": "LineString",
        "coordinates": [
          [
            79.0806186,
            21.1430195
          ],
          [
            79.0807471,
            21.1429188
          ],
          [
            79.0808053,
            21.1428021
          ],
          [
            79.0808053,
            21.1428021
          ],
          [
            79.0808053,
            21.1428021
          ]
        ]
      }
    },
    {
      "type": "Feature",
      "properties": {},
      "geometry": {
        "type": "LineString",
        "coordinates": [
          [
            79.080545,
            21.1441487
          ],
          [
            79.0805707,
            21.1440209
          ],
          [
            79.080812,
            21.1437695
          ]
        ]
      }
    },
    {
      "type": "Feature",
      "properties": {},
      "geometry": {
        "type": "LineString",
        "coordinates": [
          [
            79.0798669,
            21.1428973
          ],
          [
            79.079849,
            21.1428823
          ],
          [
            79.0798207,
            21.1428597
          ],
          [
            79.0798634,
            21.142836
          ],
          [
            79.0798634,
            21.1428371
          ],
          [
            79.0798634,
            21.1428371
          ]
        ]
      }
    }
  ]
}